,place_type,name,capacity,is_free,altitude,country,region,place,latitude,longitude,num_nearby_routes,num_services
0,0,Refugio FUENTE DEL PUERTO,,0,1724.0,Spain, Aragon, Teruel,40.5081,-1.65051,4,
1,1,Camping Yolimar,240.0,0,18.0,Spain, Asturias, Asturias,43.5527,-6.19617,4,
2,0,Refugio HOYA DE LA MORA,,0,2524.0,Spain, Andalusia, Granada,37.0941,-3.38409,8,
3,0,Refugio MONSANT NATURA,32.0,0,534.0,Spain, Catalonia, Tarragona,41.2648,0.90469,25,
4,1,Camping San Pedro,,0,18.0,Spain, Galicia, A Coruña,43.3819,-8.28903,1,
5,1,Campamento Juvenil San Juan,,0,1094.0,Spain, Castile-la mancha, Albacete,38.4824,-2.44764,10,
6,1,Camping Valle Godo,,0,848.0,Spain, Castile and león, Valladolid,41.7425,-4.07322,6,
7,0,Refugio de Mascariel,5.0,1,1395.0,Spain, Castile and león, León,42.3371,-6.43161,5,2.0
8,1,Sant Josep,,0,26.0,Spain, Catalonia, Girona,41.8111,3.01833,21,
9,1,Treumal,,0,31.0,Spain, Catalonia, Girona,41.8367,3.08724,21,
10,1,Griebal,,0,746.0,Spain, Aragon, Huesca,42.3845,0.203383,3,
11,1,Los Cameros,,0,1128.0,Spain, La rioja, La Rioja,42.081,-2.6771,1,
12,0,Chozo de El Calero,5.0,1,1385.0,Spain, Castile and león, León,42.9459,-5.82673,9,2.0
13,0,Refugio CLOT DE CHIL,16.0,1,2000.0,Spain, Aragon, Huesca,42.6175,0.490005,25,
14,0,Refugio ANAYET,,0,1906.0,Spain, Aragon, Huesca,42.7627,-0.4646,42,
15,0,Refugi Baiau “Josep Maria Montfort”,18.0,1,2517.0,Spain, Catalonia, Lleida,42.5975,1.4292,87,2.0
16,0,Refugio ORESA DE,,1,1000.0,Spain, Aragon, Zaragoza,41.3103,-1.44541,6,
17,0,Refugio PLANO EL,8.0,0,704.0,Spain, Valencian community, Valencia,39.6292,-0.966133,25,
18,0,Refugio ARDERICO,20.0,0,1324.0,Spain, Catalonia, Barcelona,42.2079,1.96594,27,
19,1,Camping Bardenas,,0,275.0,Spain, Navarre, Navarre,42.2632,-1.73831,0,
20,0,Refugio La Figuereta,40.0,0,531.0,Spain, Valencian community, Alicante,38.8209,-0.144982,89,
21,0,Refugio EL PALANCAR,28.0,0,1367.0,Spain, Community of madrid, Madrid,40.8799,-3.84578,8,
22,0,El Manojal,4.0,1,1422.0,Spain, Castile-la mancha, Albacete,38.532,-2.39254,6,1.0
23,1,Huerta Romero,,0,6.0,Spain, Andalusia, Granada,36.7215,-3.3606,2,
24,0,Refugio Raso de Cubillos,6.0,1,1536.0,Spain, Castile and león, Soria,41.9251,-2.82715,4,1.0
25,1,Camping Saiol,,0,836.0,Spain, Catalonia, Girona,42.1577,2.05431,30,
26,0,Refugio GINER DE LOS RIOS,50.0,0,1200.0,Spain, Community of madrid, Madrid,40.7632,-3.88335,14,
27,1,Zona acampada Molino de los Cuchillos,80.0,1,923.0,Spain, Valencian community, Valencia,40.0523,-1.19619,23,2.0
28,1,Zona d'acampada s'Arenalet,,0,,Spain, Balearic islands, Palma de Mallorca,39.7646,3.37712,1,
29,0,Refugio CABEZA GORDA,,0,1093.0,Spain, Castile and león, Soria,41.801,-3.0902,2,
30,1,Camping Iturbero,,0,441.0,Spain, Navarre, Navarre,42.6514,-1.30234,4,
31,0,Refugio de les Pedrisses,6.0,1,2140.0,Spain, Catalonia, Girona,42.3828,2.17238,11,2.0
32,1,Monte Holiday,,0,1098.0,Spain, Community of madrid, Madrid,40.95,-3.72941,3,
33,0,Refugio Collado de la Paja,6.0,1,1300.0,Spain, Andalusia, Jaén,38.0008,-2.69764,19,1.0
34,0,Refugio COBETA,4.0,1,1900.0,Spain, Aragon, Huesca,42.6427,0.320121,20,
35,0,Orri dels Pastors,2.0,1,2050.0,France, Occitanie, Pyrénées-Orientales,42.4553,2.14788,2,1.0
36,0,Refugio de los Agols,6.0,1,2230.0,Andorra, Encamp, Encamp,42.5111,1.60892,90,4.0
37,1,Càmping Les Illes,,0,808.0,Spain, Catalonia, Barcelona,41.7891,2.4132,31,
38,0,Refugio BARRAGAUE DIP,,1,2139.0,Spain, Aragon, Huesca,42.7247,-0.461944,25,
39,1,Lava Camping Ecologic,160.0,0,602.0,Spain, Catalonia, Girona,42.1523,2.5467,23,6.0
40,0,Refugio SANTUIL,,1,1601.0,Spain, Community of madrid, Madrid,41.061,-3.68201,0,
41,1,Las Torres,,0,59.0,Spain, Region of murcia, Murcia,37.5897,-1.22889,1,
42,0,Refugio CABANA DO MINGATON,6.0,0,1347.0,Spain, Castile and león, León,42.894,-6.77942,6,
43,0,Refugio de Tucarroya,15.0,1,2670.0,Spain, Aragon, Huesca,42.6976,0.040182,34,4.0
44,1,El Vedado,125.0,0,187.0,Spain, Catalonia, Barcelona,41.5229,2.29349,34,4.0
45,0,Refugio PAQUIZA FRONTAZA,,1,1650.0,Spain, Aragon, Huesca,42.8093,-0.620079,72,
46,1,La Laguna,,0,345.0,Spain, Andalusia, Jaén,37.9437,-3.5666,0,
47,1,Camping Benifato,,0,1040.0,Spain, Valencian community, Alicante,38.6579,-0.241878,70,
48,0,Refugio pastoral de Sainte Léocadie,6.0,1,1760.0,France, Occitanie, Pyrénées-Orientales,42.4203,2.02286,8,2.0
49,0,Refugio del Barranco de Taxeras,,1,1747.0,Spain, Aragon, Huesca,42.7874,-0.662601,63,
50,0,La Larri,8.0,1,1560.0,Spain, Aragon, Huesca,42.6862,0.085503,30,2.0
51,0,Refugio Garita,10.0,1,800.0,Spain, Cantabria, Cantabria,43.241,-4.10757,4,
52,0,Refugio LAVANOR,10.0,0,450.0,Spain, Balearic islands, Palma de Mallorca,39.8825,2.90716,5,
53,0,Refugio de las Chorreras,10.0,1,1969.0,Spain, Andalusia, Granada,37.1057,-3.06934,4,3.0
54,0,Refugio ELECTRICAS,8.0,1,2010.0,Spain, Aragon, Huesca,42.702,-0.081627,26,
55,1,Osate,,0,754.0,Spain, Navarre, Navarre,42.8867,-1.09946,4,
56,1,Zona de acampada Zamorano,50.0,0,780.0,Spain, Valencian community, Alicante,38.7745,-0.52462,68,
57,0,Refugio LOPEZ HUICI,,0,2040.0,Spain, Aragon, Huesca,42.744,-0.559517,39,
58,1,Presa La Vinuela,,0,263.0,Spain, Andalusia, Málaga,36.8737,-4.18514,5,
59,1,Valle de en medio,,0,1456.0,Spain, Castile and león, Ávila,40.6567,-4.2044,16,
60,0,Refugio CIRBANAL 2,4.0,1,1631.0,Spain, Castile and león, León,42.9597,-5.89417,8,
61,1,Camping L'Esplanada,,0,174.0,Spain, Catalonia, Barcelona,41.653,2.23577,47,
62,0,Punto de Acogida del Camino del Cid de Aguilera,20.0,1,930.0,Spain, Castile and león, Soria,41.4825,-2.89129,0,1.0
63,1,Camping Bayona Playa,,0,4.0,Spain, Galicia, Pontevedra,42.1141,-8.82552,2,
64,0,Refugio CERRADA,,1,1114.0,Spain, Castile and león, Burgos,42.0805,-2.98194,8,
65,0,Refugio FORNET EL,8.0,0,1369.0,Spain, Catalonia, Lleida,42.7258,1.10723,15,
66,0,Refugio Casot del Guard,3.0,1,533.0,France, Occitanie, Pyrénées-Orientales,42.493,2.92958,7,3.0
67,1,Camping Las Majadas,,0,1415.0,Spain, Castile-la mancha, Cuenca,40.3119,-2.0022,5,1.0
68,0,Refugio MOLI DE GOSOL,24.0,0,1330.0,Spain, Catalonia, Lleida,42.2259,1.65942,25,5.0
69,1,Parque,,0,761.0,Spain, Castile and león, Salamanca,40.7063,-6.3348,0,
70,1,Alto de Viñuelas (12/12 CC-CCA),,0,1109.0,Spain, Andalusia, Granada,37.2246,-3.48869,1,
71,1,libur,,0,37.0,Spain, Valencian community, Alicante,38.5658,-0.086111,54,
72,0,Cabane de Alemany,8.0,1,1668.0,France, Occitanie, Pyrénées-Orientales,42.4568,2.28171,4,
73,0,Refugio de la Redonda,6.0,1,1390.0,Spain, Castile and león, Ávila,40.2776,-5.41557,3,2.0
74,1,Camping Rio Luna,,0,1113.0,Spain, Castile and león, León,42.9217,-5.9614,8,
75,0,Refugio Pececillo,10.0,1,1620.0,Spain, Community of madrid, Madrid,40.8718,-3.82216,8,3.0
76,0,Refugi Lluís Estasen (Pedraforca),81.0,0,1647.0,Spain, Catalonia, Barcelona,42.2453,1.7162,25,6.0
77,0,Refugio de Pinara,6.0,1,2000.0,Spain, Aragon, Huesca,42.7254,0.188444,31,2.0
78,0,Refugio de Plana Canal (Añisclo),6.0,1,1720.0,Spain, Aragon, Huesca,42.6004,0.07161,20,2.0
79,0,Refugio CERVUNAL,4.0,0,1900.0,Spain, Castile and león, Ávila,40.3203,-4.9791,3,
80,1,Hoces del Duratón,,0,965.0,Spain, Castile and león, Segovia,41.257,-3.91065,0,
81,0,Refugio OTAL,6.0,0,1642.0,Spain, Aragon, Huesca,42.6913,-0.152198,24,
82,1,Cuevasandalucia,,0,800.0,Spain, Andalusia, Granada,37.5041,-2.70691,0,
83,0,Refugio AL CORNON,,0,1685.0,Spain, Castile and león, León,43.0112,-6.28025,13,
84,0,Refugio ZAMORANO,20.0,0,780.0,Spain, Valencian community, Alicante,38.7745,-0.52462,68,5.0
85,1,Coelius,,0,6.0,Spain, Valencian community, Valencia,38.9537,-0.130179,56,
86,1,Área Recreativa Rincón Bello,,0,588.0,Spain, Valencian community, Alicante,38.4805,-0.699792,63,
87,0,"Refugio Gerber ""Mataró""",16.0,1,2460.0,Spain, Catalonia, Lleida,42.6177,0.990861,20,
88,0,Refugio del Jou de la Colla,6.0,1,650.0,Spain, Cantabria, Cantabria,43.2149,-4.20451,4,
89,0,Refugio ENTRELAGOS,,0,1165.0,Spain, Asturias, Asturias,43.2709,-4.98485,22,
90,1,Camperstop Bicorp,,0,292.0,Spain, Valencian community, Valencia,39.1328,-0.790648,17,
91,0,Refugio de Cuello Arenas (Ordesa),7.0,1,1900.0,Spain, Aragon, Huesca,42.6112,0.009769,16,2.0
92,1,Camping Puente del Congosto,,0,930.0,Spain, Castile and león, Salamanca,40.4872,-5.52172,0,
93,0,Refugi Vallferrera,60.0,0,1940.0,Spain, Catalonia, Lleida,42.6251,1.388,86,6.0
94,0,Refugio PRESON EL,,1,1197.0,Spain, Castile and león, Soria,41.8819,-2.98989,6,
95,1,Santa pola,,0,1058.0,Spain, Aragon, Teruel,40.5453,-1.0021,0,1.0
96,0,Refugio ARTIGUETES,5.0,1,1580.0,Spain, Catalonia, Lleida,42.7769,0.829849,22,
97,0,Sant Roc de la Barroca,20.0,1,549.0,Spain, Catalonia, Girona,42.0175,2.66195,31,
98,1,Vell Emporda,,0,47.0,Spain, Catalonia, Girona,42.3392,3.06782,8,
99,0,Refugio-cabaña LINZA,8.0,1,1600.0,Spain, Aragon, Huesca,42.9036,-0.772934,73,
100,1,Mont-Roig del sol,,0,12.0,Spain, Catalonia, Tarragona,41.0371,0.974834,23,1.0
101,0,Refugio Fuente el Pico,6.0,1,1550.0,Spain, Castile and león, Soria,41.9434,-2.83005,4,1.0
102,1,Camping Tolosa,,0,,Spain, Valencian community, Alicante,38.832,0.139266,37,
103,0,Refugi Certascan,40.0,1,2240.0,Spain, Catalonia, Lleida,42.7039,1.3066,37,2.0
104,0,Refugio AGUILON,8.0,1,1550.0,Spain, Community of madrid, Madrid,40.8339,-3.85755,8,
105,1,Camping Camariñas,,0,11.0,Spain, Galicia, A Coruña,43.162,-9.18583,1,
106,1,Gijon-Deva,,0,58.0,Spain, Asturias, Asturias,43.5134,-5.59925,30,
107,0,Ermita de Sant Patllari,10.0,1,605.0,Spain, Catalonia, Girona,42.1121,2.71162,29,
108,0,Refugio RIO ALVIN,,0,1673.0,Spain, Castile and león, Burgos,42.066,-3.12128,10,
109,1,Camping Portuondo,,0,25.0,Spain, Basque country, Biscay,43.3985,-2.69617,1,
110,1,Reina Isabel,,0,721.0,Spain, Andalusia, Granada,37.1247,-3.58614,2,
111,1,Camping Pardines,,0,1153.0,Spain, Catalonia, Girona,42.3069,2.21148,14,
112,1,La Alcausa,,0,1080.0,Spain, Andalusia, Granada,36.935,-4.0747,4,
113,0,Refugio CASETA ESPINAR,,1,1334.0,Spain, Castile and león, Burgos,42.0851,-3.15063,10,
114,0,Refugio PUNTAL PILILLA,4.0,1,1633.0,Spain, Andalusia, Jaén,38.2113,-2.49882,20,
115,1,Castell Park,,0,28.0,Spain, Catalonia, Girona,41.8821,3.14046,20,
116,0,Refugio CAMPOLENGO,4.0,1,1540.0,Spain, La rioja, La Rioja,42.0323,-2.87264,4,
117,0,Refugio VUELTA ISERIAS,7.0,1,1750.0,Spain, Aragon, Huesca,42.7541,-0.481366,40,
118,0,Farrigüelo,6.0,1,1300.0,Spain, Aragon, Zaragoza,42.4063,-0.85916,3,3.0
119,0,Cabanes del Castellar,6.0,1,1900.0,Andorra, Ordino, Ordino,42.6334,1.5111,90,3.0
120,1,Suspiro,,0,840.0,Spain, Andalusia, Granada,37.0685,-3.65278,2,
121,0,Refugio CASA DEL PUERTO,,0,1492.0,Spain, Castile and león, León,42.9231,-6.04951,11,
122,0,Refugio FORESTAL PINATAR,,0,2137.0,Spain, Catalonia, Girona,42.3642,2.14906,13,
123,0,Refugio Peñon de la Polarda,12.0,1,2180.0,Spain, Andalusia, Almería,37.0808,-2.80259,1,4.0
124,0,Refugio VEGADEBANO,35.0,0,1312.0,Spain, Castile and león, León,43.1661,-5.00513,33,
125,1,Vora Mar,,0,3.0,Spain, Catalonia, Girona,41.6558,2.7787,15,
126,0,Refugio MASETS EL,,0,369.0,Spain, Catalonia, Tarragona,41.3156,1.16233,32,
127,1,Leiro,,0,113.0,Spain, Galicia, Ourense,42.3658,-8.11861,1,
128,0,Refugio GALIN GOMEZ,10.0,1,1800.0,Spain, Castile and león, Ávila,40.234,-5.60194,4,
129,0,Refugio CABEZA DE LA PARRA,6.0,1,1630.0,Spain, Castile and león, Ávila,40.3918,-4.53991,3,
130,1,EcoCamping Borja,,0,643.0,Spain, Aragon, Zaragoza,41.854,-1.57426,2,
131,0,Cabane de Bassibès,10.0,1,1980.0,France, Occitanie, Pyrénées-Orientales,42.4574,2.23239,4,3.0
132,1,Francas,,0,13.0,Spain, Catalonia, Tarragona,41.1775,1.50124,10,
133,0,Cabaña de Coume Nere,4.0,1,2150.0,France, Occitanie, Haute-Garonne,42.7369,0.529618,28,2.0
134,0,Cabaña Barranco del Puerto,4.0,1,1850.0,Spain, Aragon, Huesca,42.6598,-0.20732,21,1.0
135,1,Campament de Toirigo,,0,1508.0,Spain, Catalonia, Lleida,42.5668,0.846103,20,
136,0,Refugio de la Laguna Negra,8.0,1,1725.0,Spain, Castile and león, Soria,41.9988,-2.84321,4,2.0
137,1,Las Corralizas,,0,1720.0,Spain, Aragon, Teruel,40.5001,-1.59496,4,
138,0,Refugio CABANA DE TEJEDO,6.0,0,1462.0,Spain, Castile and león, León,42.8634,-6.80231,5,
139,0,Refugio de la Era Fustal,10.0,1,1347.0,Spain, Andalusia, Jaén,38.3106,-2.58231,20,2.0
140,0,Refugio FUENTE DE,20.0,0,1112.0,Spain, Cantabria, Cantabria,43.144,-4.81372,26,
141,0,Refugio Miguel Regueira,8.0,1,510.0,Spain, Galicia, Pontevedra,42.1421,-8.71026,4,1.0
142,0,Refuge de l'Étang du Pinet,55.0,0,2240.0,France, Occitanie, Ariège,42.6917,1.39558,73,5.0
143,0,Refugio La Bercutilla,30.0,1,919.0,Spain, Valencian community, Valencia,39.6279,-1.18688,24,2.0
144,0,Refugio COLLARADA,,0,2881.0,Spain, Aragon, Huesca,42.7114,-0.47054,22,
145,0,Orri de la Llipodere,6.0,1,1860.0,France, Occitanie, Pyrénées-Orientales,42.4857,2.41377,2,2.0
146,0,Refugio Vega Huerta,4.0,1,2038.0,Spain, Castile and león, León,43.1927,-4.96383,32,3.0
147,0,Refugio AROYO DEL PUERTO,4.0,1,1405.0,Spain, Castile and león, León,42.9595,-5.92913,8,
148,0,Refugio FACHINAL,6.0,1,1681.0,Spain, Aragon, Huesca,42.6359,-0.009719,19,
149,0,Refugio de les Fonts,10.0,1,2195.0,Andorra, La massana, La massana,42.5901,1.47895,90,5.0
150,0,Refugio PARIDERA DE LA,40.0,0,1222.0,Spain, Aragon, Zaragoza,41.8028,-1.81123,3,
151,1,Moto Cámping Anzánigo,,0,569.0,Spain, Aragon, Huesca,42.4072,-0.646866,3,1.0
152,0,Refugio PASO PALOMAS,15.0,1,1500.0,Spain, Castile and león, Ávila,40.2795,-5.58462,4,
153,0,Refugio ALTAVISTA,60.0,0,3270.0,Spain, Canary islands, Santa Cruz de Tenerife,28.2742,-16.6293,70,
154,0,Refugio SON AMER,52.0,0,535.0,Spain, Balearic islands, Palma de Mallorca,39.8184,2.89162,6,6.0
155,0,Refugio del Mas de Damia,10.0,1,700.0,Spain, Aragon, Teruel,40.8364,0.261931,1,2.0
156,1,La Capea,,0,818.0,Spain, Castile and león, Salamanca,41.0273,-5.67282,2,
157,0,Refugio Silla de Oso,8.0,1,620.0,Spain, Cantabria, Cantabria,43.2616,-4.17336,3,
158,0,Refugio VEGARREDONDA,58.0,0,1456.0,Spain, Asturias, Asturias,43.2362,-4.99256,25,
159,1,Camping Igara de San Sebastián,,0,52.0,Spain, Basque country, Gipuzkoa,43.2969,-2.03824,80,
160,0,Refugio FOYA LA,6.0,0,1418.0,Spain, Aragon, Huesca,42.8639,-0.695084,75,
161,1,Camping Montillana,,0,772.0,Spain, Andalusia, Jaén,38.1865,-2.77295,26,
162,0,Refugio BARBARICIA,6.0,1,1540.0,Spain, Aragon, Huesca,42.5777,0.419174,16,
163,0,Refugio SARRAU,5.0,1,2100.0,Spain, Aragon, Huesca,42.6681,0.373492,27,
164,0,Punto de Acogida del Camino del Cid de Caleruega,12.0,1,960.0,Spain, Castile and león, Burgos,41.8245,-3.48601,5,3.0
165,0,Refugio de la Vall del Riu,10.0,1,2160.0,Andorra, Canillo, Canillo,42.5957,1.61316,86,5.0
166,0,Refugio Ventura,8.0,1,2250.0,Spain, Andalusia, Granada,36.981,-3.4645,8,2.0
167,0,Refugio El Pilar,10.0,1,1410.0,Spain, Canary islands, Santa Cruz de Tenerife,28.6135,-17.8363,43,6.0
168,1,Camping Pilar de la Horadada,,0,78.0,Spain, Valencian community, Alicante,37.8829,-0.822437,3,
169,0,Refugio MONTCABRER,10.0,0,1211.0,Spain, Valencian community, Alicante,38.7692,-0.50082,72,
170,0,Refugio CONDE,,1,1208.0,Spain, Basque country, Álava,42.638,-2.34132,8,
171,0,Refugio de la Longuilla,8.0,1,1560.0,Spain, Castile and león, Ávila,40.274,-5.39518,2,2.0
172,0,Refugio BAJES,44.0,0,1782.0,Spain, Catalonia, Lleida,42.1705,1.56446,19,
173,0,Refugi Canyada del Conill,,1,100.0,Spain, Valencian community, Valencia,39.4145,-0.483881,15,
174,0,Refugio CERVUNAL CHOZO,6.0,0,1810.0,Spain, Castile and león, Ávila,40.2906,-5.28842,3,
175,0,Refugio Casa Forestal,28.0,0,1040.0,Spain, Valencian community, Castellón,40.6947,-0.06439,21,5.0
176,1,Camping Olite,,0,419.0,Spain, Navarre, Navarre,42.4804,-1.67763,0,
177,0,Refugio de Pineta,71.0,0,1240.0,Spain, Aragon, Huesca,42.6776,0.0859321,30,
178,0,Refugio de la Angonella,6.0,1,2235.0,Andorra, Ordino, Ordino,42.6079,1.49612,90,5.0
179,0,Refugio de Aguas Tuertas,6.0,1,1615.0,Spain, Aragon, Huesca,42.831,-0.62817,74,1.0
180,1,Prados Abiertos,,0,501.0,Spain, Castile and león, Ávila,40.2311,-5.03368,4,
181,0,Refugio de Hoya Cuevas,12.0,1,1940.0,Spain, Castile and león, Salamanca,40.3057,-5.76023,7,4.0
182,0,Refugio CANDIN,,0,887.0,Spain, Castile and león, León,42.8178,-6.72781,4,
183,1,Bellavista & Subenuix,,0,464.0,Spain, Aragon, Huesca,42.1301,0.31002,10,
184,0,Cueva Sant Bartomeu de Fraguerau,10.0,1,650.0,Spain, Catalonia, Tarragona,41.3176,0.824931,14,1.0
185,1,Faro de Trafalgar,,0,7.0,Spain, Andalusia, Cádiz,36.1901,-6.02732,0,
186,1,L'Illa,,0,580.0,Spain, Catalonia, Barcelona,41.7231,2.16944,39,
187,1,Càmping Aquelarre,300.0,0,544.0,Spain, Catalonia, Lleida,41.6778,1.27027,15,2.0
188,0,Refugio CHOZO BARGA,,1,119.0,Spain, Castile and león, Soria,41.8041,-3.20658,5,
189,0,Refugio PINAREJOS II,8.0,0,1085.0,Spain, Castile and león, Burgos,41.8869,-3.36022,4,
190,0,Refugio REBOST,50.0,0,1640.0,Spain, Catalonia, Barcelona,42.2873,1.88504,25,8.0
191,1,el Sotet,,0,84.0,Spain, Catalonia, Lleida,41.4563,0.357238,0,
192,0,Refugio CADIERA,6.0,1,1619.0,Spain, Aragon, Huesca,42.6467,-0.045048,23,
193,0,Refugio PLANA DE DIEGO,,1,2000.0,Spain, Aragon, Huesca,42.8795,-0.783754,68,
194,1,Pedroso,,0,21.0,Spain, Galicia, A Coruña,43.5211,-8.1105,2,
195,0,Ermita San Maurici,8.0,1,1850.0,Spain, Catalonia, Lleida,42.5817,1.01435,20,2.0
196,0,Refugi Santa Cecília “Bartomeu Puiggròs”,36.0,1,678.0,Spain, Catalonia, Barcelona,41.611,1.8179,52,
197,0,Cabane Cums,10.0,1,1865.0,France, Occitanie, Pyrénées-Orientales,42.4589,2.4249,2,2.0
198,0,Refugio MOLSERET,,1,1920.0,Spain, Aragon, Huesca,42.6739,0.503054,30,
199,0,Refugio de Marradetas,40.0,1,2050.0,Spain, Aragon, Huesca,42.5678,0.392149,14,3.0
200,1,Naturist Campsite Las Grullas,30.0,0,464.0,Spain, Extremadura, Cáceres,39.2962,-6.10099,0,
201,0,Refugio Bardoitza,20.0,1,1060.0,Spain, Navarre, Navarre,42.8246,-2.07193,30,3.0
202,1,Camping Riomalo,,0,410.0,Spain, Extremadura, Cáceres,40.4027,-6.08508,10,
203,0,Refugio POQUEIRA,85.0,0,2488.0,Spain, Andalusia, Granada,37.0275,-3.32372,8,10.0
204,0,Refugi Costabona,18.0,1,2168.0,Spain, Catalonia, Girona,42.4107,2.3398,6,1.0
205,0,Refugi Bassegoda,40.0,0,800.0,Spain, Catalonia, Girona,42.3123,2.6483,21,3.0
206,0,Refugio ALTO DEL PUERTO,6.0,0,1650.0,Spain, Castile and león, León,42.866,-6.82255,5,
207,1,Camping de Candeleda,,0,365.0,Spain, Castile and león, Ávila,40.1444,-5.26724,4,
208,1,La Huerta Vieja,,1,703.0,Spain, Andalusia, Jaén,38.118,-2.80662,23,4.0
209,0,Refugio TOCON EL,,0,1181.0,Spain, Aragon, Teruel,40.4384,-1.39353,5,
210,0,Refugio Las Maestras,7.0,1,550.0,Spain, Cantabria, Cantabria,43.255,-4.13072,4,
211,1,Costa Blanca,,0,14.0,Spain, Valencian community, Alicante,38.4354,-0.388434,27,
212,0,Refugi Mallafré (Sant Maurici),34.0,0,1890.0,Spain, Catalonia, Lleida,42.5788,1.0091,20,6.0
213,1,Càmping Molí de Bojons,,0,531.0,Spain, Catalonia, Barcelona,41.9117,2.38451,22,
214,0,Refugio BASKONIA,15.0,0,731.0,Spain, Basque country, Biscay,43.056,-2.77495,18,
215,0,Refugio FAJ GUASA,,1,1580.0,Spain, Aragon, Huesca,42.6793,-0.112299,24,
216,1,Cueva Negra,,0,68.0,Spain, Andalusia, Almería,37.089,-1.85669,0,
217,0,Refugi de les Salines,12.0,1,1084.0,Spain, Catalonia, Girona,42.421,2.74883,6,3.0
218,0,Refugio de El Rajao,10.0,1,1020.0,Spain, La rioja, La Rioja,42.2543,-2.88407,3,3.0
219,1,Riembau,,0,8.0,Spain, Catalonia, Girona,41.8097,3.04633,21,
220,0,Refugi Font de Vivens,,1,870.0,Spain, Valencian community, Alicante,38.5871,-0.551789,70,1.0
221,0,Refugio Risca del Guijarrón,8.0,1,1277.0,Spain, Andalusia, Jaén,38.1934,-2.80525,26,3.0
222,1,Rifort,,0,3.0,Spain, Catalonia, Girona,42.0522,3.19139,15,
223,1,Pinsapo Azul,,0,720.0,Spain, Andalusia, Málaga,36.7358,-4.92706,18,
224,0,Refugio REGAJERA,15.0,1,539.0,Spain, Castile and león, Salamanca,40.4853,-6.01147,9,
225,0,Refugio de San Vicenda (Añisclo),8.0,1,1780.0,Spain, Aragon, Huesca,42.6189,0.05757,24,2.0
226,1,Camping Pobla de Benifassà,,0,494.0,Spain, Valencian community, Castellón,40.6736,0.230556,6,
227,1,Camping,,0,680.0,Spain, Aragon, Huesca,42.2015,-0.12909,12,
228,0,Refugio A PONTE,10.0,0,1110.0,Spain, Galicia, Ourense,42.2508,-6.8928,9,
229,0,Refugi Font Ferrera,40.0,0,1157.0,Spain, Catalonia, Tarragona,40.7291,0.2032,4,6.0
230,0,Refugio MUCHACHERA,,0,1422.0,Spain, Castile and león, Segovia,41.0314,-3.81025,1,
231,0,Refugio del Pozo de Pedrarías,2.0,1,1700.0,Spain, Andalusia, Granada,38.0122,-2.59354,13,1.0
232,1,Camping Tropical Almuñécar,,0,35.0,Spain, Andalusia, Granada,36.7381,-3.678,1,
233,0,Cabaña de Llardaneta,6.0,1,2300.0,Spain, Aragon, Huesca,42.6385,0.457907,23,1.0
234,1,Torre Pena 2,,0,12.0,Spain, Andalusia, Cádiz,36.0694,-5.68083,0,
235,0,Refugio de Santa Ana,16.0,1,1540.0,Spain, Aragon, Huesca,42.6446,0.53523,29,1.0
236,0,Caseta de Navalperal,5.0,1,1640.0,Spain, Andalusia, Jaén,38.3163,-2.58501,20,
237,0,Refugio CAPRADIZA O CARDUSO,4.0,1,1800.0,Spain, Aragon, Huesca,42.628,0.047853,25,
238,0,Refugio VAQUERIZA,8.0,1,1600.0,Spain, Castile and león, Segovia,40.7762,-4.10267,14,
239,0,San Juan Penyagolosa,15.0,1,1280.0,Spain, Valencian community, Castellón,40.2546,-0.33662,26,1.0
240,0,Refugio Campera de Ordiales,8.0,1,1725.0,Spain, Asturias, Asturias,43.1973,-4.98667,32,4.0
241,1,El Burro Blanco,,0,649.0,Spain, Castile and león, Salamanca,40.4749,-5.99856,9,
242,1,es Pixarells,,0,,Spain, Balearic islands, Palma de Mallorca,39.8339,2.89443,6,
243,1,Camping Fuente Helecha,,0,690.0,Spain, Castile and león, Ávila,40.3027,-4.76266,4,
244,0,Refugio del Clot,6.0,1,1598.0,Spain, Aragon, Huesca,42.4696,0.47669,8,2.0
245,0,Refugi Niu de l'Àliga,30.0,0,2520.0,Spain, Catalonia, Barcelona,42.3196,1.89318,26,
246,1,Camping Sisargas,,0,104.0,Spain, Galicia, A Coruña,43.2966,-8.81045,1,
247,1,Camping El Pinar,,0,3.0,Spain, Catalonia, Girona,41.6528,2.77833,14,
248,0,Refugio Forestal del Cortal den Vidal,20.0,1,1650.0,Spain, Catalonia, Girona,42.326,1.84085,22,2.0
249,0,Refugio de Montserrat,8.0,1,1627.0,Spain, Catalonia, Girona,42.2883,2.2857,13,
250,0,Corral de Prados Grandes,4.0,1,2320.0,Spain, Andalusia, Granada,37.0702,-3.12525,7,1.0
251,1,Camping Ciudad de Albarracín,,0,1143.0,Spain, Aragon, Teruel,40.4119,-1.42756,5,
252,1,Camping Azul,,0,2.0,Spain, Valencian community, Valencia,38.9077,-0.0681515,63,
253,1,Marbella Playa,,0,6.0,Spain, Andalusia, Málaga,36.4916,-4.76372,14,
254,0,Refugio forestal monte Altis,40.0,0,1025.0,Spain, Valencian community, Castellón,40.1863,-0.423594,28,6.0
255,0,Refugio del Vado de Ordiso,8.0,1,1610.0,Spain, Aragon, Huesca,42.7216,-0.13701,25,
256,0,Refugio VALVERDE,4.0,1,1465.0,Spain, Castile and león, León,43.0401,-6.06292,17,
257,1,Zona de Lleure L'Acampada,,0,393.0,Spain, Catalonia, Tarragona,41.0981,0.889744,27,1.0
258,0,Refugio de Pedra Cabalar,8.0,1,1400.0,Spain, Castile and león, León,42.7616,-6.88715,3,3.0
259,0,Refugi de la Font del Teix,4.0,1,1100.0,Spain, Valencian community, Alicante,38.6916,-0.1554,71,2.0
260,0,Refugio FORCAU EL,100.0,0,2116.0,Spain, Aragon, Huesca,42.6291,0.457128,23,
261,0,Refugio Errenaga,6.0,1,1287.0,Spain, Basque country, Gipuzkoa,42.9827,-2.04034,70,2.0
262,0,Refugio TACUDIA,4.0,1,1165.0,Spain, La rioja, La Rioja,42.0822,-2.86883,4,
263,0,Refugio de Góriz,72.0,0,2200.0,Spain, Aragon, Huesca,42.6651,0.0160926,28,
264,1,Camping Almonte,,0,48.0,Spain, Andalusia, Huelva,37.0138,-6.5747,0,
265,1,Cala Gogo,,0,41.0,Spain, Catalonia, Girona,41.8306,3.08309,22,
266,0,Refugio SERRAT DE LES ESPOSES,30.0,0,1511.0,Spain, Catalonia, Lleida,42.3251,1.82864,24,
267,1,Camping Ciutadella de Menorca,,0,10.0,Spain, Balearic islands, Palma de Mallorca,40.0002,3.79623,1,
268,0,Refugio CUELLO ARENAS,,0,1900.0,Spain, Aragon, Huesca,42.6092,0.018003,16,
269,0,Refugio Collarte,6.0,1,955.0,Spain, Aragon, Zaragoza,41.3333,-1.36475,5,3.0
270,0,Refugi Broate,18.0,1,2218.0,Spain, Catalonia, Lleida,42.6824,1.3712,69,2.0
271,0,Refugio de Ensagents,14.0,1,2425.0,Andorra, Encamp, Encamp,42.517,1.64204,89,5.0
272,0,Choza de los Prados de Mazaruel,3.0,1,1525.0,Spain, Castile and león, León,42.8108,-6.28451,5,2.0
273,0,Refugio CORRAL YEGUAS,4.0,0,1447.0,Spain, Castile and león, León,42.7993,-6.26535,3,
274,1,Camping Fonoll,,0,652.0,Spain, Catalonia, Tarragona,41.5283,1.23295,19,
275,0,Refugio BISIBERRI 2,9.0,0,220.0,Spain, Catalonia, Lleida,42.6056,0.81169,21,
276,0,Refugio MONTANESA,8.0,0,1640.0,Spain, Castile and león, Zamora,42.2172,-6.76203,12,
277,1,La Casita,,0,111.0,Spain, Andalusia, Cádiz,36.2504,-5.33803,1,
278,0,Refuge CAF Bouillouses,59.0,0,2003.0,France, Occitanie, Pyrénées-Orientales,42.559,2.00347,7,8.0
279,0,Refugio BASA DE OLLES,20.0,1,1625.0,Spain, Catalonia, Lleida,42.7149,0.773914,22,
280,0,Punto de Acogida del Camino del Cid de Valdanzo,,1,900.0,Spain, Castile and león, Soria,41.5529,-3.40155,0,1.0
281,0,Refugio Los Alces,7.0,1,500.0,Spain, Cantabria, Cantabria,43.2526,-4.13008,4,
282,0,Refugio Monterilla,5.0,1,1750.0,Spain, Andalusia, Jaén,37.9744,-2.72803,18,1.0
283,0,Refugio SECUS,6.0,1,1854.0,Spain, Aragon, Huesca,42.7951,-0.65945,68,
284,0,Refugio Aizkorri,8.0,1,1523.0,Spain, Basque country, Gipuzkoa,42.9511,-2.32496,66,4.0
285,0,Refugio Vivac de la Caldera,20.0,1,3050.0,Spain, Andalusia, Granada,37.0549,-3.32446,8,4.0
286,0,Puigsacalm - Emili Triadú,10.0,1,1270.0,Spain, Catalonia, Girona,42.1334,2.39903,24,2.0
287,0,Refugio libre de Coma Pedrosa,4.0,1,2215.0,Andorra, La massana, La massana,42.5814,1.44677,91,1.0
288,0,Refugio RUBIALES,44.0,0,1158.0,Spain, Aragon, Teruel,40.2793,-1.27114,10,
289,1,Good Spot for Camping if in Emergency,,0,2641.0,Spain, Catalonia, Lleida,42.5908,0.903516,23,
290,0,Refugio de Botornás,8.0,1,2352.0,Spain, Aragon, Huesca,42.5894,0.68193,22,
291,0,Rectoria De Cartellà,30.0,0,174.0,Spain, Catalonia, Girona,42.0236,2.76604,30,
292,1,Camping Monfragüe,,0,418.0,Spain, Extremadura, Cáceres,39.9442,-6.08444,4,
293,1,El Tossal del Llop,50.0,0,144.0,Spain, Valencian community, Alicante,38.8485,-0.157819,85,3.0
294,1,Camping Puertomarín,,0,350.0,Spain, Galicia, Lugo,42.8074,-7.60829,1,
295,0,Refugio MONTARRUEGO,8.0,1,2100.0,Spain, Aragon, Huesca,42.6821,0.160509,29,
296,0,Refugio PANDIECHA,3.0,0,1750.0,Spain, Castile and león, León,42.9154,-6.49122,7,
297,1,Arketa kanping,,0,6.0,Spain, Basque country, Biscay,43.3951,-2.67918,1,
298,1,Camping Moraira,,0,,Spain, Valencian community, Alicante,38.6863,0.119229,48,1.0
299,0,Puesto del Morrón de Yeguen,5.0,1,1975.0,Spain, Andalusia, Granada,37.0335,-3.11377,7,1.0
300,0,Refugio del Prao del Tajo,8.0,1,1040.0,Spain, La rioja, La Rioja,42.2606,-2.92682,10,3.0
301,0,Refugio Aloya,30.0,1,624.0,Spain, Galicia, Pontevedra,42.0839,-8.6794,4,2.0
302,0,Refugio LAGUNA LAS VERDES,,0,1616.0,Spain, Castile and león, León,43.0041,-6.12565,14,
303,1,Rodas,,0,3.0,Spain, Catalonia, Girona,42.2685,3.15301,5,
304,0,Refugio TORREBARRIO,30.0,0,1246.0,Spain, Castile and león, León,43.0074,-5.99601,13,
305,1,Benelux,,0,26.0,Spain, Catalonia, Girona,41.8729,3.15148,20,
306,1,Camping Bellavista,,0,7.0,Spain, Andalusia, Málaga,36.3462,-5.23652,4,
307,0,Refugio de Bonne-Aigue,14.0,1,1741.0,France, Occitanie, Pyrénées-Orientales,42.5368,2.43371,2,4.0
308,0,Refugio MONTSANT,24.0,0,801.0,Spain, Catalonia, Tarragona,41.3014,0.91365,24,
309,0,Refugio TRESVISO,12.0,0,916.0,Spain, Cantabria, Cantabria,43.2569,-4.66755,18,
310,0,Refugio de Villavientos,10.0,1,3040.0,Spain, Andalusia, Granada,37.0458,-3.33443,8,3.0
311,1,La Estanca,,0,796.0,Spain, La rioja, La Rioja,42.1258,-2.11305,1,
312,0,Refugio de la Morra del Cerezo,3.0,1,1668.0,Spain, Andalusia, Jaén,38.0621,-2.8968,21,
313,0,Refugio de Grobas,,1,550.0,Spain, Galicia, Pontevedra,42.579,-8.26779,3,3.0
314,1,La Casilla,,0,990.0,Spain, Castile and león, Ávila,40.2391,-5.13134,4,
315,1,Marycampo,,0,9.0,Spain, Galicia, A Coruña,43.3416,-8.23463,1,
316,1,"Campamento-Albergue Juvenil ""Los Cabezos""",,0,124.0,Spain, Andalusia, Córdoba,37.7329,-5.28984,0,
317,1,Camping Palm-Mar,,0,19.0,Spain, Valencian community, Alicante,38.0731,-0.652687,14,
318,0,Refugio COMA,7.0,1,1820.0,Spain, Aragon, Huesca,42.6604,0.524944,30,
319,0,Refugio GOLOBAR EL,,0,1748.0,Spain, Castile and león, Palencia,42.9672,-4.33687,3,
320,0,Refugio de Barrosa,10.0,1,1725.0,Spain, Aragon, Huesca,42.7011,0.152435,31,3.0
321,1,Camping Neptuno,,0,16.0,Spain, Catalonia, Girona,41.9927,3.18829,18,
322,0,Chozo Aranguez,10.0,1,1900.0,Spain, Castile and león, Segovia,40.8578,-3.96686,9,3.0
323,0,Punto de Acogida del Camino del Cid de Acered,,1,835.0,Spain, Aragon, Zaragoza,41.1707,-1.604,5,1.0
324,1,Teleferico Benalmadena,,0,79.0,Spain, Andalusia, Málaga,36.599,-4.53969,13,
325,0,Refugio de Airoto,10.0,1,2200.0,Spain, Catalonia, Lleida,42.6966,1.0421,18,5.0
326,1,area deautocarabanas de kobetamendi,,0,189.0,Spain, Basque country, Biscay,43.2597,-2.96365,0,
327,0,Refugi Serra d’Ensija,31.0,0,2156.0,Spain, Catalonia, Barcelona,42.1872,1.7486,22,5.0
328,0,Refugio NALVALCOLLADO,,0,1786.0,Spain, Castile and león, Segovia,41.0074,-3.81944,3,
329,0,Choza del Muchachón,6.0,1,1900.0,Spain, Castile and león, Soria,41.9732,-2.8565,4,2.0
330,0,Refugio Riu dels Orris,6.0,1,2230.0,Andorra, Escaldes-engordany, Escaldes-engordany,42.4851,1.63981,90,5.0
331,0,Refugio La Naranjera,8.0,1,1570.0,Spain, Castile and león, Ávila,40.6365,-4.17126,18,
332,0,Refugio FARGA LA,6.0,1,2200.0,Andorra, Escaldes-engordany, Escaldes-engordany,42.4898,1.6072,89,
333,1,Camping Montesinos,,0,837.0,Spain, Castile-la mancha, Albacete,38.9362,-2.8209,0,
334,1,La Vinca,,0,115.0,Spain, Catalonia, Girona,42.3167,2.88629,17,
335,1,Camping La Morta,,0,1120.0,Spain, Aragon, Teruel,40.6729,-0.698208,2,
336,0,Refugi de Juclar lliure,6.0,1,2310.0,Andorra, Canillo, Canillo,42.6072,1.71563,84,1.0
337,1,Don Guillen,,0,1155.0,Spain, Valencian community, Valencia,40.0302,-1.14398,23,
338,0,Refugio CASA FORESTALES,5.0,0,832.0,Spain, Aragon, Zaragoza,41.3764,-1.53095,5,
339,0,Refugio SAN BERNARDO,,0,1300.0,Spain, Castile and león, Zamora,42.1322,-6.72868,11,
340,1,Playa Paisaxe I,,0,4.0,Spain, Galicia, Pontevedra,42.5518,-8.83384,1,
341,0,Refugio PARTICULAR,,0,905.0,Spain, Asturias, Asturias,43.3621,-4.76176,19,
342,1,Olive Branch,,0,300.0,Spain, Andalusia, Málaga,36.9071,-4.75223,10,1.0
343,0,Refugio La Cucaracha,15.0,1,1840.0,Spain, Andalusia, Granada,37.1172,-3.33824,8,2.0
344,1,Camping Santa Tecla,,0,2.0,Spain, Galicia, Pontevedra,41.899,-8.84718,0,
345,0,Refugio de Prat Miró,50.0,1,1988.0,Spain, Catalonia, Lleida,42.4238,1.61915,89,
346,0,Refugio MONTE REAL,,1,1697.0,Spain, La rioja, La Rioja,42.1437,-2.44232,1,
347,1,Camping la Palanca del Mas,,0,477.0,Spain, Aragon, Teruel,40.8289,-0.239959,7,
348,0,Refugio JULIO CASAL,45.0,0,1614.0,Spain, Cantabria, Cantabria,43.0325,-4.35002,4,
349,0,Refugio REGAJOHONDO,4.0,1,1724.0,Spain, Castile and león, Segovia,41.0028,-3.82945,3,
350,1,Camping los Acedos,,0,548.0,Spain, Navarre, Navarre,42.6608,-2.25105,8,
351,0,Refugio de Burbia o Acebalín,5.0,1,1473.0,Spain, Castile and león, León,42.8157,-6.8405,6,3.0
352,1,Monte Cabo,,0,25.0,Spain, Galicia, Pontevedra,42.4165,-8.8775,2,
353,1,Las Villuercas - Guadalupe,,0,534.0,Spain, Extremadura, Cáceres,39.4412,-5.31625,2,
354,0,Refugio BALNEARIO EL,4.0,1,1678.0,Spain, La rioja, La Rioja,42.1297,-2.82435,4,
355,0,Refugio LASTRA DE,,1,955.0,Spain, Aragon, Zaragoza,41.3104,-1.44963,6,
356,1,Area de acampada,,0,1370.0,Spain, Aragon, Huesca,42.6417,0.566194,30,
357,0,Refugio Barcal de Acherito,4.0,1,1745.0,Spain, Aragon, Huesca,42.8847,-0.72617,75,2.0
358,0,Refugio de Salentinos,3.0,1,1420.0,Spain, Castile and león, León,42.8144,-6.33748,3,4.0
359,0,Refugio RASO EL,,1,1393.0,Spain, Castile and león, Segovia,40.7711,-4.11932,18,
360,0,Refugio MASIA DE LIGROS,,0,1249.0,Spain, Aragon, Teruel,40.2673,-1.35801,12,
361,0,Refugio PALOMAR RISCO,6.0,0,964.0,Spain, Castile and león, Soria,41.5232,-2.80923,0,
362,0,Orri de Baix,2.0,1,2050.0,France, Occitanie, Pyrénées-Orientales,42.4448,2.11719,5,2.0
363,0,Refugio MOJABRAGAS,,1,1101.0,Spain, Castile and león, Soria,41.8541,-2.8306,3,
364,0,Refugio AGUILUCHOS,7.0,1,675.0,Spain, Aragon, Zaragoza,41.7284,-1.57273,2,
365,0,Refugi Pla d'Erola,15.0,0,1524.0,Spain, Catalonia, Girona,42.3363,2.19265,14,5.0
366,1,Camperpark Huerta de Murcia,,0,38.0,Spain, Region of murcia, Murcia,38.0074,-1.0437,23,
367,0,Refugio Sandaruelo,4.0,1,1680.0,Spain, Aragon, Huesca,42.7033,-0.09736,25,2.0
368,0,Refugio GORG CUBER,6.0,0,745.0,Spain, Balearic islands, Palma de Mallorca,39.7808,2.78294,6,
369,1,GreenVillage,,0,6.0,Spain, Galicia, A Coruña,43.3416,-8.23363,1,
370,1,Riaza,,0,1207.0,Spain, Castile and león, Segovia,41.2691,-3.49716,2,
371,0,Refugio de Usabas,6.0,1,1820.0,Spain, Aragon, Huesca,42.6726,-0.3827,14,2.0
372,1,Aguiar,,0,43.0,Spain, Galicia, A Coruña,43.3413,-8.23077,1,
373,0,Refugio de Foratón,8.0,1,1850.0,Spain, Aragon, Huesca,42.7804,-0.660431,61,
374,0,Molí d'en Frigola,50.0,0,80.0,Spain, Catalonia, Girona,41.9433,2.98891,31,
375,0,Refugio CANCHO PORRON,2.0,0,1670.0,Spain, Community of madrid, Madrid,40.7553,-3.94201,19,
376,0,Refugio CAMPA DE BREGO,,0,1408.0,Spain, Galicia, Lugo,42.7924,-6.87513,3,
377,1,Castillo de Banos,,0,8.0,Spain, Andalusia, Granada,36.741,-3.30121,1,
378,0,Refugio de Nou Fonts,4.0,1,2660.0,Spain, Catalonia, Girona,42.4202,2.17746,9,
379,1,Alardos,,0,367.0,Spain, Extremadura, Cáceres,40.148,-5.35785,2,
380,0,VIVAC ERMITA DE FOMBASALLA,,0,1269.0,Spain, Castile and león, León,42.7073,-6.84427,3,
381,0,Refugio de Cueva Valiente,5.0,1,1900.0,Spain, Castile and león, Ávila,40.6897,-4.19284,18,1.0
382,0,Barraque de les Colomates,4.0,1,790.0,France, Occitanie, Pyrénées-Orientales,42.4808,3.02642,7,3.0
383,1,Camping Almócita,,0,800.0,Spain, Andalusia, Almería,36.9953,-2.7852,1,
384,0,Refugio ESTANYA CABANA,,1,2430.0,Andorra, Escaldes-engordany, Escaldes-engordany,42.4903,1.6483,90,
385,0,Corral de Prado Largo,6.0,1,1990.0,Spain, Andalusia, Granada,37.1086,-3.08818,4,3.0
386,1,Parque Ardales Zona 1,,0,359.0,Spain, Andalusia, Málaga,36.92,-4.80424,9,
387,0,Refugio PIEDRAHITA,3.0,1,1745.0,Spain, Castile and león, Palencia,42.9643,-4.71224,13,
388,0,Refugi la Serra (Pereroles),12.0,0,1040.0,Spain, Valencian community, Castellón,40.6943,-0.064319,21,
389,0,Refugio REGOLLAR,10.0,0,933.0,Spain, Castile and león, Salamanca,40.6496,-6.09219,9,
390,0,Refugio CUBILLO DEL MONO,,0,1047.0,Spain, Castile and león, Soria,41.8293,-3.26216,5,
391,0,Refugio LIZARRA,75.0,0,1519.0,Spain, Aragon, Huesca,42.7642,-0.633925,46,
392,1,El Bierzo,,0,452.0,Spain, Castile and león, León,42.5616,-6.7459,7,
393,0,Refugio ALFONSO XIII,20.0,1,2140.0,Spain, Aragon, Huesca,42.8133,-0.283753,32,
394,0,Refugio Peñas Albas,5.0,1,1800.0,Spain, Castile and león, Soria,42.0311,-2.80603,4,1.0
395,0,Refugio Cabane de l Ouillat,6.0,1,1630.0,France, Occitanie, Pyrénées-Orientales,42.4211,2.37178,4,3.0
396,1,Camping Os Ancares,,0,501.0,Spain, Galicia, Lugo,42.8322,-7.06085,2,
397,1,Cap Blanch,,0,5.0,Spain, Valencian community, Alicante,38.5777,-0.064875,58,
398,1,La Cabanuela,,0,663.0,Spain, Andalusia, Granada,37.5577,-2.91148,3,
399,1,Hotel de Montaña Lamiana,,0,1094.0,Spain, Aragon, Huesca,42.5844,0.170135,20,
400,1,Càmping Pola,,0,45.0,Spain, Catalonia, Girona,41.735,2.94929,16,1.0
401,1,elPont,,0,385.0,Spain, Catalonia, Tarragona,41.2849,0.751297,11,1.0
402,0,Refugio MINA LA,20.0,0,1278.0,Spain, Aragon, Huesca,42.8551,-0.685035,74,
403,0,Refugio COLLADA MENERS Meners,4.0,1,2700.0,Andorra, Canillo, Canillo,42.6213,1.60664,87,
404,0,VIVAC CASA CAMINEROS,6.0,0,227.0,Spain, Extremadura, Cáceres,39.8319,-6.02831,2,
405,0,Refugio TABLADILLAS,,1,1485.0,Spain, Castile and león, Segovia,40.7808,-4.10903,14,
406,0,Refugi Colomina,49.0,0,2395.0,Spain, Catalonia, Lleida,42.5194,1.0013,21,6.0
407,1,Camping El Robledo,,0,950.0,Spain, Andalusia, Jaén,38.2521,-2.68385,24,
408,0,Refugio CAMPANAS,5.0,1,1550.0,Spain, Castile and león, Ávila,40.3,-5.05725,4,
409,1,English in Summer,,0,112.0,Spain, Galicia, Pontevedra,42.1704,-8.80127,4,
410,0,Refugio del Monte Dehesa Boyal,8.0,1,1400.0,Spain, La rioja, La Rioja,42.1631,-2.73532,2,2.0
411,0,Refugio PINETA LA,71.0,0,1243.0,Spain, Aragon, Huesca,42.6663,0.103694,28,
412,1,La Fuente,,0,207.0,Spain, Region of murcia, Murcia,38.2064,-1.10722,23,
413,0,Refugio TIO MANTECA,,1,1526.0,Spain, Castile and león, Ávila,40.3213,-5.00515,4,
414,0,Refugio ACHICHUELO,16.0,1,1115.0,Spain, La rioja, La Rioja,42.0677,-2.68532,1,
415,0,Refugio Fuente de la Puerca,6.0,1,750.0,Spain, Valencian community, Valencia,39.5709,-0.94804,26,2.0
416,0,Refugio DEL HILO,,0,785.0,Spain, Region of murcia, Murcia,37.8576,-1.52233,14,
417,0,VIVAC 7 LAGUNAS,3.0,0,3090.0,Spain, Andalusia, Granada,37.0481,-3.29687,8,
418,0,Refugio SAN ADRIAN,48.0,0,980.0,Spain, Navarre, Navarre,42.8685,-2.0507,38,
419,0,Refugio CASETA DE LOS CAZADORES,,0,755.0,Spain, Castile and león, Valladolid,41.6283,-4.84913,1,
420,0,VIVAC IGLESIA DE CEREIXIDO,2.0,0,799.0,Spain, Galicia, Lugo,42.7929,-6.93545,4,
421,0,Refugio MASADA DE LA LOSILLA,,0,1348.0,Spain, Aragon, Teruel,40.3788,-1.40178,6,
422,1,Castro,,0,20.0,Spain, Galicia, A Coruña,43.3413,-8.24049,1,
423,0,Refugio del Orry Andreu,5.0,1,1930.0,France, Occitanie, Pyrénées-Orientales,42.3706,2.00096,15,4.0
424,1,Area Bellvei,,0,97.0,Spain, Catalonia, Tarragona,41.2467,1.56987,10,
425,1,Vedado,,0,197.0,Spain, Catalonia, Barcelona,41.5214,2.29278,34,
426,1,Complejo Turístico Puente de las Herrerías,,0,988.0,Spain, Andalusia, Jaén,37.9061,-2.93614,20,5.0
427,0,Sant Salvador de les Espases,8.0,1,413.0,Spain, Catalonia, Barcelona,41.579,1.88424,57,3.0
428,0,Refugio Prados del Conde,8.0,1,1792.0,Spain, Andalusia, Granada,37.9545,-2.69109,16,3.0
429,0,Refugio CUBILAR DE LA ESPATA,,0,1630.0,Spain, Aragon, Huesca,42.6887,-0.474584,14,
430,0,Refugio MALNIU Libre,4.0,1,2123.0,Spain, Catalonia, Girona,42.4647,1.7857,63,
431,1,Camping,,0,798.0,Spain, Castile and león, Salamanca,40.4436,-6.44619,0,
432,0,Refugi Font de Serquera,,1,342.0,Spain, Valencian community, Valencia,38.8661,-0.282561,87,
433,0,Refugio MEICIN EL,54.0,0,1500.0,Spain, Asturias, Asturias,43.0251,-5.93893,16,
434,1,La Campina,,0,278.0,Spain, Andalusia, Córdoba,37.6231,-4.85859,0,
435,1,Furgoperfecto,,0,18.0,Spain, Catalonia, Girona,41.8606,3.14962,19,
436,0,Refugio Cañada del Rincon,6.0,1,1700.0,Spain, Andalusia, Jaén,37.9994,-2.74792,21,1.0
437,1,Camping Alfacs,,0,7.0,Spain, Catalonia, Tarragona,40.5953,0.570312,0,
438,0,Santa Maria de Finestres,5.0,1,840.0,Spain, Catalonia, Girona,42.1121,2.59299,27,
439,0,Refugio OJUELO,,1,1166.0,Spain, Castile and león, Soria,41.8774,-3.05373,6,
440,0,Refugio Font del Teix,5.0,1,604.0,Spain, Catalonia, Tarragona,40.9586,0.58952,4,3.0
441,0,Refugio Abri Pinatell,10.0,1,1650.0,France, Occitanie, Pyrénées-Orientales,42.519,2.50922,3,4.0
442,1,Camping Javier,,0,451.0,Spain, Navarre, Navarre,42.5912,-1.20167,3,
443,0,Refugio SIERRA MORENA,15.0,0,900.0,Spain, Andalusia, Huelva,38.0326,-6.38351,1,
444,1,Escana,,0,,Spain, Balearic islands, Palma de Mallorca,39.0042,1.57264,0,7.0
445,0,Maison forestiere ONF de Mariailles,5.0,1,1691.0,France, Occitanie, Pyrénées-Orientales,42.4995,2.40927,2,4.0
446,1,Camping,,0,614.0,Spain, Andalusia, Granada,37.1928,-3.65339,0,
447,0,Refugio POBLE NOU,30.0,0,95.0,Spain, Balearic islands, Palma de Mallorca,39.8328,3.09162,4,
448,1,Casa Valerosa,,0,142.0,Spain, Catalonia, Tarragona,40.9194,0.723499,8,
449,0,Refugio HORCAJOS,,1,1419.0,Spain, Castile and león, Segovia,40.7722,-4.12595,14,
450,0,Refugio de Larry,10.0,1,1750.0,France, Nouvelle-aquitaine, Pyrénées-Atlantiques,42.8518,-0.51737,76,
451,0,Refugio PLANAS DE ABOZO,8.0,1,1690.0,Spain, Aragon, Huesca,42.6546,-0.170348,22,
452,0,Refugio FRAGUA,5.0,1,1514.0,Spain, Castile and león, Segovia,41.0152,-3.85066,3,
453,0,Refugi Cueva de los Maquis,,1,893.0,Spain, Valencian community, Valencia,39.9002,-1.16954,24,
454,0,Refugio NAVACASTELLANOS,,0,1100.0,Spain, Castile and león, Soria,41.8229,-3.03168,3,
455,0,Refugio BACHIMALA,8.0,1,2202.0,Spain, Aragon, Huesca,42.6872,0.375271,27,
456,0,Refugio de Ip,25.0,1,2100.0,Spain, Aragon, Huesca,42.7132,-0.52528,22,4.0
457,1,Ruesta,,0,505.0,Spain, Aragon, Zaragoza,42.5855,-1.07872,3,
458,0,Cabane de Les Corones,7.0,1,1860.0,France, Occitanie, Pyrénées-Orientales,42.3767,2.02536,13,2.0
459,0,Refugio POSETS,,1,2000.0,Spain, Aragon, Huesca,42.6752,0.470663,27,
460,1,Càmping Estrella de Mar,,0,9.0,Spain, Catalonia, Barcelona,41.27,1.9975,14,
461,0,Refugio CAP DE REC,30.0,0,1963.0,Spain, Catalonia, Lleida,42.4312,1.66829,88,
462,0,Refugio Fuente de Acero,7.0,1,1500.0,Spain, Andalusia, Jaén,37.8989,-2.852,20,4.0
463,1,Camping Valle do Seo,,0,588.0,Spain, Castile and león, León,42.6485,-6.90243,2,1.0
464,0,Can Torra,30.0,0,481.0,Spain, Catalonia, Girona,41.9702,2.58746,30,
465,0,Refugio FUENTE DEL SOL,,0,975.0,Spain, Region of murcia, Murcia,37.8603,-1.55303,16,
466,0,Refugio CONANGLES,36.0,0,1555.0,Spain, Catalonia, Lleida,42.6153,0.768152,23,
467,0,Refugio de Cabana de la Portella,6.0,1,2265.0,Andorra, Canillo, Canillo,42.572,1.72049,88,5.0
468,0,Refugio CENTRALETA,10.0,0,1923.0,Spain, Catalonia, Lleida,42.5705,0.93627,20,
469,1,Camping municipal d'Altura,,0,410.0,Spain, Valencian community, Castellón,39.8471,-0.515904,48,
470,0,Refugio REMEDIO EL,24.0,0,1028.0,Spain, Valencian community, Valencia,39.6233,-1.14069,26,
471,0,Refugi Ulldeter,57.0,0,2236.0,Spain, Catalonia, Girona,42.4198,2.25773,8,6.0
472,1,Càmping Cel de Rubió,,0,295.0,Spain, Catalonia, Lleida,41.9064,1.00067,2,
473,1,Campamento xuvenil 'Espiñeira' (Boiro),100.0,0,100.0,Spain, Galicia, A Coruña,42.6582,-8.88453,1,2.0
474,0,Foratarruego,8.0,1,1900.0,Spain, Aragon, Huesca,42.6209,0.1157,25,2.0
475,0,Refugio CORONAS ABRIS,2.0,1,2760.0,Spain, Aragon, Huesca,42.63,0.639166,24,
476,1,Zona de acampada Estación Palancar,160.0,0,971.0,Spain, Valencian community, Castellón,40.03,-0.721096,16,5.0
477,0,Refugio Lavaderos del Segundo,5.0,1,1375.0,Spain, Andalusia, Almería,36.906,-2.9034,1,
478,1,Camping Algamitas,,0,793.0,Spain, Andalusia, Seville,37.0197,-5.17504,0,
479,0,Refugio de Taxeras,10.0,1,1415.0,Spain, Aragon, Huesca,42.8554,-0.77925,64,2.0
480,1,Moraira,,0,,Spain, Valencian community, Alicante,38.6861,0.119127,48,
481,0,Refugio CHOZO DE ANSELMO,12.0,1,1600.0,Spain, Castile and león, Ávila,40.2538,-5.60485,4,
482,0,Refugio de Peña Partia,10.0,1,2430.0,Spain, Andalusia, Granada,37.1305,-3.29749,7,3.0
483,1,Borda Castell,,0,1000.0,Spain, Catalonia, Lleida,42.3751,1.07577,13,
484,0,Refugio de la Feixa,10.0,1,2170.0,Spain, Catalonia, Girona,42.4639,1.81526,51,1.0
485,0,Refugio ASPERON,,1,1161.0,Spain, Castile and león, Soria,41.8795,-2.83174,5,
486,0,Cabaña de la Coma,4.0,1,1820.0,Spain, Aragon, Huesca,42.6494,0.512495,30,4.0
487,0,Refugio DEL PINO,4.0,1,1220.0,Spain, La rioja, La Rioja,42.067,-2.86822,4,
488,1,La Garrofa,,0,17.0,Spain, Andalusia, Almería,36.8256,-2.51694,0,
489,0,Refugio de la Fuente del Berro,6.0,1,1600.0,Spain, Castile and león, Soria,41.9983,-2.92101,4,3.0
490,0,Refugio des Vigourats,5.0,1,884.0,France, Occitanie, Pyrénées-Orientales,42.4894,2.57704,3,3.0
491,1,Camping Miño Dos Playas,,0,7.0,Spain, Galicia, A Coruña,43.365,-8.20998,1,
492,0,Refugio Banderillas (nuevo),10.0,1,1980.0,Spain, Andalusia, Jaén,38.0125,-2.78674,21,3.0
493,0,Refugio VALLEJO MUNECAS,,1,1093.0,Spain, Castile and león, Soria,41.7923,-3.15942,3,
494,1,zingira,,0,46.0,Spain, Basque country, Gipuzkoa,43.2559,-2.13071,97,
495,1,Camping Tentudia,,0,588.0,Spain, Extremadura, Badajoz,38.0529,-6.24099,0,
496,1,Camping Bonastre,,0,155.0,Spain, Catalonia, Tarragona,41.2125,1.43844,16,
497,1,Campamento Kanina Rock,,0,13.0,Spain, Andalusia, Huelva,37.2214,-7.26741,1,
498,1,Camping Martiago,,0,838.0,Spain, Castile and león, Salamanca,40.436,-6.48008,0,
499,0,Refugio Cristo Sierra,15.0,1,1611.0,Spain, Castile and león, Palencia,42.8516,-4.74168,9,3.0
500,0,Refugio SAN FELIPE,6.0,1,1123.0,Spain, Castile and león, Zamora,42.1852,-6.31769,1,
501,0,Refugio DESCANSADERO,,1,1993.0,Spain, Castile and león, Segovia,40.7905,-4.1392,11,
502,0,Refugio ORALLO,6.0,1,1465.0,Spain, Castile and león, León,43.0276,-6.35919,12,
503,0,Refugio Lagunilla,5.0,1,1588.0,Spain, Castile-la mancha, Albacete,38.5514,-2.41325,6,1.0
504,1,Murkuzuria,,0,719.0,Spain, Navarre, Navarre,42.855,-1.09728,4,
505,0,Cabaña de Lapassa,5.0,1,1850.0,France, Nouvelle-aquitaine, Pyrénées-Atlantiques,42.8484,-0.62157,74,2.0
506,0,Xalet Refugi Juli Soler Santaló,112.0,0,1268.0,Spain, Catalonia, Lleida,42.7073,0.90316,22,6.0
507,0,Refugio Cova Cambra,18.0,1,1306.0,Spain, Catalonia, Tarragona,40.8078,0.305568,1,4.0
508,0,Refugio MONTGARRI,16.0,0,1656.0,Spain, Catalonia, Lleida,42.7594,0.994627,17,
509,0,Refugio Natural de Chorreras Negras,6.0,1,2900.0,Spain, Andalusia, Granada,37.0475,-3.29257,8,1.0
510,0,Refugio de la Cueva,4.0,1,1580.0,Spain, Aragon, Huesca,42.7632,-0.62251,46,2.0
511,0,Refugio de Domingo Fernando,5.0,1,1170.0,Spain, Castile and león, Ávila,40.2623,-5.13998,4,2.0
512,0,Refugio SON FORTUNY,5.0,0,404.0,Spain, Balearic islands, Palma de Mallorca,39.6445,2.46857,4,
513,0,Refugio GORIZ,100.0,0,2193.0,Spain, Aragon, Huesca,42.663,0.015204,28,
514,1,Playa Montroig Camping Resort,,0,11.0,Spain, Catalonia, Tarragona,41.0337,0.969216,22,
515,1,sol Calpe,,0,,Spain, Valencian community, Alicante,38.6484,0.0592221,56,1.0
516,0,Refugio Mirador de Peña Gorda,6.0,1,1250.0,Spain, Castile and león, Soria,41.8901,-2.94518,6,1.0
517,0,Refugio SON REAL,8.0,0,12.0,Spain, Balearic islands, Palma de Mallorca,39.7516,3.18761,2,
518,0,Refugio Casilla Gea,8.0,1,1159.0,Spain, Aragon, Teruel,40.3816,-1.37204,6,3.0
519,0,Refugio UBEIRE,27.0,0,1530.0,Spain, Andalusia, Almería,37.1186,-2.90149,1,
520,1,Gaivota,,0,13.0,Spain, Galicia, Lugo,43.5622,-7.2075,7,
521,0,Refugio FUENTE SIERRO,2.0,1,1812.0,Spain, Castile and león, León,42.9906,-6.07502,16,
522,1,Camping Clarà,,0,2.0,Spain, Catalonia, Tarragona,41.1491,1.42003,11,1.0
523,1,Playa Paxarina,,0,2.0,Spain, Galicia, Pontevedra,42.3925,-8.84517,3,
524,1,Camping Lizara,,0,455.0,Spain, Navarre, Navarre,42.6571,-2.01748,1,1.0
525,0,Refugio MORCUERA,45.0,0,1733.0,Spain, Community of madrid, Madrid,40.8364,-3.83535,8,
526,0,Refugio ANES CRUCES,8.0,1,2096.0,Spain, Aragon, Huesca,42.6817,0.409372,27,
527,1,Camping Bellsol,,0,6.0,Spain, Catalonia, Barcelona,41.6188,2.67914,14,
528,1,Hort de Montenegro,,0,80.0,Spain, Valencian community, Alicante,38.2677,-0.682329,37,
529,1,Viu Camping,,0,1240.0,Spain, Aragon, Huesca,42.6164,-0.154119,18,
530,1,Albergue de Rabosa,,1,724.0,Spain, Valencian community, Alicante,38.4983,-0.701058,67,2.0
531,0,Refugio Pleta de Das,,0,1775.0,Spain, Catalonia, Girona,42.3456,1.88811,22,
532,0,Refugio AGUSTIN LOZANO,,0,1266.0,Spain, Andalusia, Málaga,36.4823,-5.20075,10,
533,1,Llanos,,0,2.0,Spain, Valencian community, Alicante,38.8686,-0.0163836,57,
534,0,Refugio RUESCA,4.0,1,1060.0,Spain, Aragon, Zaragoza,41.3044,-1.44009,6,
535,1,Camping Palamos,,0,18.0,Spain, Catalonia, Girona,41.8496,3.13856,19,
536,0,Refugio PIEMEDIANO,4.0,1,1773.0,Spain, Castile and león, Segovia,41.0144,-3.83909,3,
537,1,Camping Antilla,,0,5.0,Spain, Andalusia, Huelva,37.2154,-7.19451,1,
538,0,Refugio OZCABA,8.0,0,1165.0,Spain, Cantabria, Cantabria,43.0886,-4.234,5,
539,1,Camping Carlos V,,0,1.0,Spain, Cantabria, Cantabria,43.4181,-3.44535,2,
540,0,VIVAC ALZADAS VILANOVA,12.0,0,1212.0,Spain, Galicia, Lugo,42.7662,-6.92974,3,
541,1,Balcon de Pitres,,0,1246.0,Spain, Andalusia, Granada,36.932,-3.3337,8,
542,0,Refugio de la Font de les Pollineres,8.0,1,2135.0,Spain, Catalonia, Lleida,42.4454,1.61026,92,
543,0,Refugio DROLS,40.0,0,1340.0,Spain, Catalonia, Barcelona,42.2725,1.95405,30,
544,1,Camping Peña Gullón,,0,1014.0,Spain, Castile and león, Zamora,42.118,-6.69127,11,
545,0,Refugio del Pla de prats,20.0,1,1560.0,Spain, Catalonia, Girona,42.2797,2.1194,19,
546,0,Refugio MATALUENGA,,0,1395.0,Spain, Castile and león, León,42.8462,-5.78257,3,
547,0,Refugio Ángel Orús,96.0,0,2150.0,Spain, Aragon, Huesca,42.6292,0.458454,23,
548,0,Refugio de Tabernés,25.0,1,1700.0,Spain, Aragon, Huesca,42.6739,0.36105,27,2.0
549,0,Refugio Borda Gavatxó,15.0,1,1800.0,Spain, Catalonia, Lleida,42.5103,1.41958,92,
550,0,Refugio de l'Illa,50.0,0,2488.0,Andorra, Encamp, Encamp,42.495,1.65639,90,7.0
551,1,Camping Los Pinos Denia,108.0,0,,Spain, Valencian community, Alicante,38.8295,0.146972,37,8.0
552,1,Marina,,0,-1.0,Spain, Basque country, Gipuzkoa,43.2962,-2.25398,74,
553,0,Refugio SALCINA O ABARCA,12.0,0,111.0,Spain, Balearic islands, Palma de Mallorca,39.7472,3.38467,1,
554,0,Refugio PISCO,,0,1261.0,Spain, Galicia, Ourense,41.8831,-7.93342,0,
555,0,Refugio Ermita de San Donato,20.0,1,1491.0,Spain, Navarre, Navarre,42.8878,-1.98078,35,2.0
556,0,Refugio CAP DE PORT,,1,2060.0,Spain, Catalonia, Lleida,42.664,0.980538,18,
557,0,Refugio Barranco del Puero,10.0,1,1600.0,Spain, Aragon, Huesca,42.65,-0.20928,20,3.0
558,0,Refugio PICO CERVERO,5.0,1,1465.0,Spain, Castile and león, Salamanca,40.5857,-5.97534,9,
559,1,Reception,,0,4.0,Spain, Catalonia, Girona,42.0013,3.19406,18,
560,0,Refugio BESIBERRI,6.0,0,2805.0,Spain, Catalonia, Lleida,42.6075,0.833203,22,
561,0,Refugio de La Estiva,6.0,1,2070.0,Spain, Aragon, Huesca,42.6836,0.10668,29,2.0
562,0,Refugio de Soaso,8.0,1,1650.0,Spain, Aragon, Huesca,42.64,0.003605,20,
563,1,Camping Municipal El Brillante,,0,139.0,Spain, Andalusia, Córdoba,37.9006,-4.7876,0,
564,0,Refugio El Risquiezo,7.0,1,1050.0,Spain, Castile and león, Burgos,41.8116,-3.17517,3,2.0
565,1,Camping Los Arconcales,,0,109.0,Spain, Andalusia, Cádiz,36.4429,-5.45998,5,
566,1,Camping La Playa,,0,374.0,Spain, La rioja, La Rioja,42.4711,-2.45472,4,1.0
567,0,Refugio MALLADA DEL MUSTALLAR,,0,1416.0,Spain, Castile and león, León,42.8261,-6.83338,6,
568,0,Punto de Acogida del Camino del Cid de Cubillo del Campo,20.0,1,1.0,Spain, Castile and león, Burgos,42.168,-3.61038,14,1.0
569,0,Refugio Cebrián,7.0,1,1480.0,Spain, Castile and león, Soria,42.0145,-2.79717,4,1.0
570,1,King's Camping,,0,20.0,Spain, Catalonia, Girona,41.8626,3.14321,20,
571,0,Refugio CABLE,18.0,0,1699.0,Spain, Cantabria, Cantabria,43.154,-4.80519,27,
572,1,Alphas,,0,610.0,Spain, Community of madrid, Madrid,40.3181,-3.68889,3,
573,0,Refugio TASCONET,,0,1450.0,Spain, Catalonia, Barcelona,42.2566,1.76511,23,
574,0,Caseta libre entre Ochagavia e Isaba,5.0,1,1300.0,Spain, Navarre, Navarre,42.8901,-1.01481,4,4.0
575,1,polideportivo,,0,897.0,Spain, Andalusia, Jaén,37.4538,-3.92992,0,
576,0,Refugios Virgen del Rosario,27.0,1,258.0,Spain, Valencian community, Alicante,38.249,-0.904038,34,
577,0,Refugio El Tornillo,8.0,1,879.0,Spain, Cantabria, Cantabria,43.1976,-4.16085,4,
578,0,Refugio Pargana,25.0,1,1584.0,Spain, Canary islands, Las Palmas,27.9405,-15.6006,17,
579,1,Valldaro,,0,14.0,Spain, Catalonia, Girona,41.8141,3.04495,21,
580,0,Orri de Prats Balaguer,2.0,1,1500.0,France, Occitanie, Pyrénées-Orientales,42.4825,2.17065,4,2.0
581,1,Playa de Otur,,0,90.0,Spain, Asturias, Asturias,43.5453,-6.6003,5,
582,0,Refugio PINUELA II LA,15.0,1,1036.0,Spain, Castile and león, Salamanca,40.558,-6.07325,9,
583,0,Refuge de Pla Guillem,20.0,1,2275.0,France, Occitanie, Pyrénées-Orientales,42.4762,2.41294,2,4.0
584,0,Refugio PARDINAS,6.0,1,2100.0,Spain, Aragon, Huesca,42.6324,0.284591,22,
585,0,Refugi d’Amitges (lliure),12.0,1,2380.0,Spain, Catalonia, Lleida,42.5967,0.984633,19,4.0
586,0,Refugio LAGUNILLA 2,3.0,0,1159.0,Spain, Castile and león, Soria,41.8098,-3.00001,2,
587,1,Camping Cala del Aceite,,0,18.0,Spain, Andalusia, Cádiz,36.3,-6.12838,0,1.0
588,0,Refugio Codos,8.0,1,1050.0,Spain, Aragon, Zaragoza,41.2873,-1.4158,6,2.0
589,0,Caseta de Castelló,,1,800.0,Spain, Valencian community, Alicante,38.753,-0.739811,46,
590,1,Camping Castillonroy,,0,414.0,Spain, Aragon, Huesca,41.8757,0.569323,3,
591,0,Ordelca,6.0,1,1699.0,Spain, Aragon, Huesca,42.7705,-0.63187,46,2.0
592,0,Refugio  de Lavasar,16.0,1,1910.0,Spain, Aragon, Huesca,42.556,0.314623,10,1.0
593,1,Camping Cantolagua,,0,394.0,Spain, Navarre, Navarre,42.5685,-1.28349,3,1.0
594,1,Camping Azul,,0,1.0,Spain, Valencian community, Valencia,38.9069,-0.0688238,63,
595,0,Refugio CASITA BLANCA,10.0,1,1280.0,Spain, Aragon, Huesca,42.7528,-0.507096,41,
596,0,Refugio FUENTE BERMEJA,,0,600.0,Spain, Region of murcia, Murcia,37.868,-1.49083,20,
597,1,Los Molinos,,0,123.0,Spain, Cantabria, Cantabria,43.4643,-3.60858,3,
598,0,VIVAC ALZADAS XESTOSO,,0,1007.0,Spain, Galicia, Lugo,42.9496,-6.90271,6,
599,0,Refugio del Lanchón,4.0,1,1720.0,Spain, Castile and león, Ávila,40.2688,-5.37147,2,2.0
600,1,Càmping Tossa,,0,49.0,Spain, Catalonia, Girona,41.729,2.89237,16,
601,1,El Quinto,,0,83.0,Spain, Andalusia, Almería,37.1408,-1.85918,0,
602,1,Camping Panzano,,0,664.0,Spain, Aragon, Huesca,42.2132,-0.174966,13,
603,0,Refugio CULRUEBA,6.0,1,1791.0,Spain, Aragon, Huesca,42.6799,0.356909,27,
604,0,Refugio TORMO,3.0,1,1730.0,Spain, Aragon, Huesca,42.6681,0.507864,30,
605,0,Cabane de Auloueilh,11.0,1,1853.0,France, Occitanie, Hautes-Pyrénées,42.8559,0.246656,27,4.0
606,0,Refugio Díaz Bertrana,52.0,0,1697.0,Spain, Canary islands, Las Palmas,27.9613,-15.5846,17,3.0
607,1,Camping La Herradura,,0,,Spain, Andalusia, Granada,36.7357,-3.7442,1,
608,1,Neuvo Camping,,0,313.0,Spain, Region of murcia, Murcia,38.2555,-1.71863,6,
609,0,Refugio Mas del Frare,15.0,1,1200.0,Spain, Catalonia, Tarragona,40.7654,0.280032,4,3.0
610,0,Refugio de la Campona,8.0,1,1600.0,Spain, Castile and león, León,42.8079,-6.42961,3,3.0
611,0,Refugio HONFRIA,15.0,1,1135.0,Spain, Castile and león, Salamanca,40.572,-5.95149,9,
612,0,Refugio CANTAL,2.0,1,1930.0,Spain, Aragon, Huesca,42.6756,0.489563,29,
613,0,Cabane Estables,8.0,1,1755.0,France, Occitanie, Pyrénées-Orientales,42.4609,2.44805,2,4.0
614,0,Refugio RASOS DE PEGUERA,50.0,0,1805.0,Spain, Catalonia, Barcelona,42.1367,1.76278,24,
615,0,Refugio ALCOHOLERA LA,8.0,0,1820.0,Spain, Andalusia, Almería,37.075,-2.78227,1,
616,0,Refugio SAN ANTONI,20.0,0,679.0,Spain, Catalonia, Tarragona,41.3116,0.857656,16,
617,0,Refugio Perafita,8.0,1,2200.0,Andorra, Escaldes-engordany, Escaldes-engordany,42.4797,1.57829,91,5.0
618,1,Camping de la Torre,,0,10.0,Spain, Catalonia, Girona,41.85,3.08749,22,
619,1,Camping Molinicos,,0,906.0,Spain, Castile-la mancha, Albacete,38.4848,-2.35033,8,
620,1,Camping Barcelona,,0,8.0,Spain, Catalonia, Barcelona,41.5507,2.48319,26,
621,0,Refugio BALSA DEL SABINAR,,1,1839.0,Spain, Andalusia, Almería,36.8791,-2.86108,1,
622,0,Refugio CASA PADRONES,12.0,0,410.0,Spain, Canary islands, Las Palmas,28.4066,-14.055,7,
623,0,Refugio Pepe Garcés,48.0,0,1600.0,Spain, Aragon, Huesca,42.7892,-0.530382,70,1.0
624,0,Refugio PLANA SORRIPAS,,1,1900.0,Spain, Aragon, Huesca,42.6074,0.083018,22,
625,0,Choza de las Llanaillas,4.0,1,1490.0,Spain, Castile and león, Ávila,40.2198,-5.54142,4,1.0
626,0,Refugio  Collado del Campo,8.0,1,1275.0,Spain, Aragon, Zaragoza,41.7083,-1.70339,3,2.0
627,0,Chozo del Belesar,5.0,1,2120.0,Spain, Castile and león, Ávila,40.2654,-5.33252,3,1.0
628,0,Refugio Cabana de Siscaró,10.0,1,2145.0,Andorra, Canillo, Canillo,42.5948,1.70599,87,5.0
629,1,Camping Fuente de Regrustan,,0,458.0,Spain, Aragon, Huesca,42.1994,0.341746,11,
630,0,refugio de Urdiceto,40.0,1,2400.0,Spain, Aragon, Huesca,42.6675,0.283241,23,4.0
631,1,El Salader platja,,0,1.0,Spain, Valencian community, Alicante,38.2891,-0.520088,18,
632,0,Refugio MAS DE AGUSTINA,30.0,0,1000.0,Spain, Valencian community, Castellón,40.19,-0.346342,32,
633,1,San Vicente,,0,3.0,Spain, Valencian community, Valencia,39.0533,-0.19786,43,
634,0,Refugio CASETA DEL TORIL,,0,1552.0,Spain, Andalusia, Almería,37.192,-2.53102,0,
635,0,Refugio SIERRO NEGRO,32.0,0,1196.0,Spain, Castile and león, León,42.9498,-5.51272,20,
636,1,Río Mundo,,0,904.0,Spain, Castile-la mancha, Albacete,38.4889,-2.3462,8,
637,0,Bonicaparra,8.0,1,1265.0,Spain, La rioja, La Rioja,42.3127,-2.96233,5,3.0
638,0,Refugio MOJON ALTO,8.0,0,1733.0,Spain, La rioja, La Rioja,42.1356,-2.71108,2,
639,0,Cabana deth Pontet,8.0,1,1600.0,Spain, Catalonia, Lleida,42.6645,0.780725,23,2.0
640,0,Refugio CABANA DE AMUESA,,0,1382.0,Spain, Asturias, Asturias,43.2373,-4.85499,25,
641,1,Mariñana,,0,41.0,Spain, Galicia, A Coruña,43.3398,-8.23004,1,
642,1,Camping Hoyos del Espino,,0,1402.0,Spain, Castile and león, Ávila,40.3412,-5.1639,3,
643,0,El Castañar,5.0,1,1300.0,Spain, Castile and león, Ávila,40.355,-4.51473,3,1.0
644,1,Camping Riumar,,0,-1.0,Spain, Catalonia, Tarragona,40.7289,0.828853,1,
645,0,VIVAC CABANA VELLA,,0,1212.0,Spain, Galicia, Lugo,42.8121,-6.89653,5,
646,0,Refugio Valdemanzano,10.0,1,1300.0,Spain, Aragon, Zaragoza,41.7729,-1.78156,3,3.0
647,1,Inter Pals,,0,31.0,Spain, Catalonia, Girona,41.9814,3.20167,19,
648,1,Camping Navahermosa la Milagra,,0,846.0,Spain, Castile-la mancha, Toledo,39.6209,-4.48924,0,
649,1,Camping La Torrecilla,,0,284.0,Spain, Andalusia, Cádiz,36.7497,-5.50506,2,
650,0,Refugio de La Berenilla,8.0,1,605.0,Spain, Basque country, Biscay,43.2331,-3.06639,0,3.0
651,1,Camping Valle Añisclo,,0,643.0,Spain, Aragon, Huesca,42.5087,0.125012,4,
652,0,Refugio Vega del Conde,8.0,1,1605.0,Spain, Castile and león, Zamora,42.2043,-6.77023,11,3.0
653,0,Refugio de Valhondo,6.0,1,1125.0,Spain, Castile and león, Soria,41.7695,-2.9271,2,1.0
654,1,Camping Nerga,,0,5.0,Spain, Galicia, Pontevedra,42.2564,-8.83332,3,
655,1,El Cid,,0,17.0,Spain, Valencian community, Castellón,40.3768,0.392567,11,
656,0,Refugio QUATRE PINS,8.0,1,2165.0,Spain, Catalonia, Lleida,42.5334,1.08396,19,
657,0,Refugio Collado del Buey,6.0,1,1715.0,Spain, Valencian community, Valencia,40.0713,-1.08562,22,2.0
658,1,MACHETE recommended to continue downhill (southeast) past this point!,,0,201.0,Spain, Galicia, A Coruña,42.8807,-8.56284,5,
659,0,Refugio del Barranco del Puerto,8.0,1,1535.0,Spain, Aragon, Huesca,42.6643,-0.35544,14,3.0
660,1,Camping Rio Cuervo,,0,1318.0,Spain, Castile-la mancha, Cuenca,40.4501,-1.95443,4,
661,1,CP Roche,,0,37.0,Spain, Andalusia, Cádiz,36.3112,-6.11268,0,
662,0,Refugio JOSE MARIA BLANCH,80.0,0,2350.0,Spain, Catalonia, Lleida,42.5447,1.04444,22,
663,0,Refugi Coma de Vaca,42.0,0,1995.0,Spain, Catalonia, Girona,42.3854,2.219,12,6.0
664,0,La Corraliza de Balsa Bermeja,2.0,1,1710.0,Spain, Andalusia, Almería,36.928,-2.82756,1,1.0
665,0,VIVAC CASTRILLO,,0,447.0,Spain, Extremadura, Cáceres,39.828,-6.05149,2,
666,0,Refugio CASTRONUNO,6.0,1,662.0,Spain, Castile and león, Valladolid,41.4021,-5.25107,0,
667,0,Caseta de Aguasalio,6.0,1,1700.0,Spain, Castile and león, León,42.9633,-4.82013,19,3.0
668,1,La Albolafia,,0,123.0,Spain, Andalusia, Córdoba,37.9537,-4.55422,0,
669,0,Cabaña de Eléctricas,6.0,1,2020.0,Spain, Aragon, Huesca,42.705,-0.0793,26,2.0
670,0,Refugio CABANA MONTE CABEZO,,0,1322.0,Spain, Cantabria, Cantabria,43.0078,-4.30368,3,
671,0,Refugio ZURIZA,100.0,0,1340.0,Spain, Aragon, Huesca,42.8647,-0.809488,64,
672,1,Zona de acampada (Abandonada),,0,824.0,Spain, Castile-la mancha, Albacete,38.4669,-2.51151,11,
673,0,Refugio SABOREDO,20.0,0,2296.0,Spain, Catalonia, Lleida,42.6211,0.963252,19,
674,0,Refugio ARLET,25.0,0,1997.0,France, Nouvelle-aquitaine, Pyrénées-Atlantiques,42.8407,-0.61562,74,
675,0,Refugio CORRAL,6.0,1,1301.0,Spain, Castile and león, Palencia,42.8216,-4.74726,5,
676,0,Refugi del Catllaràs,10.0,1,1371.0,Spain, Catalonia, Barcelona,42.2246,1.97148,25,3.0
677,1,Camping Arenteiro,,0,367.0,Spain, Galicia, Ourense,42.4239,-8.09755,1,
678,1,Internacional Palamos,,0,25.0,Spain, Catalonia, Girona,41.8569,3.13775,19,
679,1,Los Brígidos,,1,639.0,Spain, Andalusia, Jaén,38.0613,-2.82951,21,2.0
680,1,Zona de Acampada Monte Coto Pinoso,40.0,0,893.0,Spain, Valencian community, Alicante,38.381,-0.96,35,5.0
681,0,La txabola de los maridos maltratados,5.0,1,610.0,Spain, Navarre, Navarre,43.2254,-1.57048,37,2.0
682,0,Refugio Vivac de la Carigüela,16.0,1,3250.0,Spain, Andalusia, Granada,37.0498,-3.37097,8,4.0
683,0,Refugio de las Minas de Liat,12.0,1,2270.0,Spain, Catalonia, Lleida,42.7953,0.873799,19,2.0
684,0,Refugio BRAZATO,,1,2220.0,Spain, Aragon, Huesca,42.7513,-0.212001,25,
685,0,Refugio PUENTE GRILLETA,,1,1005.0,Spain, Castile and león, Zamora,42.1231,-6.68578,11,
686,0,Refugio CAZADORES,,1,1594.0,Spain, Community of madrid, Madrid,40.9764,-3.80844,3,
687,0,Refugio HOYUELO,7.0,1,1078.0,Spain, Castile and león, Ávila,40.242,-5.13831,4,
688,1,Caravaning La Manga,,0,19.0,Spain, Region of murcia, Murcia,37.625,-0.74382,3,
689,0,Refugio NEILA DE,52.0,0,1806.0,Spain, Castile and león, Burgos,42.0431,-3.03984,8,
690,1,Camping Iznate,,0,234.0,Spain, Andalusia, Málaga,36.7847,-4.17455,5,
691,1,"Camping ""La Fuente""",,0,646.0,Spain, Castile-la mancha, Albacete,39.2676,-1.32716,7,
692,1,Cuartel Militar de Marines,,0,306.0,Spain, Valencian community, Valencia,39.7093,-0.570239,26,
693,0,Refugio ALBARCA,25.0,0,802.0,Spain, Catalonia, Tarragona,41.3005,0.912508,24,
694,1,Pico Verde,,0,743.0,Spain, Castile and león, León,42.2948,-5.53793,1,
695,0,Refugio CUEVA MANZANO,2.0,1,1140.0,Spain, Castile and león, Soria,41.8809,-2.92077,6,
696,0,Refugio de Montmalús,10.0,1,2445.0,Andorra, Encamp, Encamp,42.4992,1.6807,88,5.0
697,1,Camping Pineda de Mar,,0,,Spain, Catalonia, Barcelona,41.6172,2.67691,14,
698,0,Refugio NAVACASERA I,8.0,1,1439.0,Spain, Castile and león, Ávila,40.2635,-5.56519,4,
699,0,Refugio AYOSA,10.0,0,1955.0,Spain, Canary islands, Santa Cruz de Tenerife,28.3526,-16.4742,56,
700,1,Fang aventura,,0,283.0,Spain, Catalonia, Girona,42.1115,2.68682,29,1.0
701,1,Salata,,0,5.0,Spain, Catalonia, Girona,42.2656,3.15652,6,1.0
702,0,Refugio PUERTO NAVAFRIA,,0,1780.0,Spain, Castile and león, Segovia,40.987,-3.81452,3,
703,1,San Pascual,,0,2.0,Spain, Valencian community, Valencia,39.2745,-0.277791,14,
704,0,Refugio MONT CARO,43.0,0,1123.0,Spain, Catalonia, Tarragona,40.8103,0.337864,1,
705,0,Refugio PENON DEL,6.0,1,1466.0,Spain, Castile and león, Segovia,41.0212,-3.84384,3,
706,0,Corrales de Urre,8.0,1,945.0,Spain, La rioja, La Rioja,42.2759,-2.92201,5,2.0
707,0,Refugio LIZARRUSTI,40.0,0,632.0,Spain, Basque country, Gipuzkoa,42.9604,-2.09932,65,
708,1,Camping Palamos - Reception,,0,25.0,Spain, Catalonia, Girona,41.8501,3.13872,19,
709,0,Refugio de Cerbillonar,12.0,1,1800.0,Spain, Aragon, Huesca,42.7486,-0.15246,28,
710,1,Camping Village Doñarrayan Park,,0,56.0,Spain, Andalusia, Huelva,37.2424,-6.38182,0,
711,0,Refugio CANENCIA,24.0,0,1230.0,Spain, Community of madrid, Madrid,40.8905,-3.77226,8,
712,0,Refugio PINGARRON,25.0,0,1825.0,Spain, Community of madrid, Madrid,40.8157,-3.95758,11,
713,0,Refugio forestal de Margalida,8.0,1,1434.0,Spain, Aragon, Huesca,42.4289,0.441785,6,2.0
714,0,Refugio de La Renclusa,92.0,0,2140.0,Spain, Aragon, Huesca,42.6693,0.65082,24,8.0
715,0,Refugio  Ordesa (emergencia),4.0,1,1500.0,Spain, Aragon, Huesca,42.6356,-0.02042,20,
716,1,Montanesa,,0,1394.0,Spain, Aragon, Huesca,42.4347,-0.135,4,
717,0,Refugio CORTALS,22.0,0,1610.0,Spain, Catalonia, Lleida,42.3096,1.7904,23,
718,0,Refugio RAS DE CONQUES,24.0,0,1840.0,Spain, Catalonia, Lleida,42.4519,1.36465,78,3.0
719,1,Monterroso 'A Peneda',,0,504.0,Spain, Galicia, Lugo,42.7868,-7.84518,0,
720,1,Camping La Najanja,,0,5.0,Spain, Valencian community, Valencia,39.0045,-0.177529,46,
721,0,Refugio ST CRUZ-ZARCIA,4.0,1,1090.0,Spain, Castile and león, Burgos,42.2806,-3.20875,9,
722,0,Refugio S ARENALET,8.0,0,14.0,Spain, Balearic islands, Palma de Mallorca,39.7649,3.37816,1,
723,1,Solana del segre,,0,1011.0,Spain, Catalonia, Lleida,42.3724,1.7605,61,
724,1,Penascosa,,0,1138.0,Spain, Castile-la mancha, Albacete,38.6708,-2.40472,3,
725,0,Refugio Bachimaña,80.0,0,2180.0,Spain, Aragon, Huesca,42.7805,-0.225832,27,8.0
726,0,VIVAC PAO DE ZARCO,,0,1282.0,Spain, Galicia, Lugo,42.8977,-6.84558,6,
727,0,Refugio de la Covil,15.0,1,1779.0,Spain, Catalonia, Girona,42.2834,2.10471,20,
728,0,"Albergue ""La Corneja""",21.0,1,1.0,Spain, Castile and león, Burgos,42.0958,-3.57364,11,4.0
729,0,Abri Etang La Caranca,15.0,1,2264.0,France, Occitanie, Pyrénées-Orientales,42.4311,2.19662,5,2.0
730,1,Tierra de Gredos,,0,593.0,Spain, Castile and león, Ávila,40.2059,-5.12321,4,
731,1,Vejer,,0,64.0,Spain, Andalusia, Cádiz,36.2521,-5.93846,0,
732,0,Refugio RIBERES,4.0,1,1840.0,Spain, Aragon, Huesca,42.6249,0.465384,25,
733,1,El Maset,,0,35.0,Spain, Catalonia, Girona,41.9687,3.20999,19,
734,1,Camping El Martinete,,0,546.0,Spain, Andalusia, Seville,37.9933,-5.67108,0,
735,1,Càmping Vall de Merlès,,0,532.0,Spain, Catalonia, Barcelona,42.002,1.98528,22,
736,1,Rio Ulla,,0,5.0,Spain, Galicia, Pontevedra,42.6346,-8.75978,1,
737,0,Refugio CAMPOSAGRADO,6.0,0,1510.0,Spain, Castile and león, León,42.9363,-6.43146,9,
738,0,Cova de J. Montaner,15.0,1,1850.0,Spain, Catalonia, Lleida,42.567,1.41334,92,3.0
739,0,Refugio de Campoplano,20.0,1,2200.0,Spain, Aragon, Huesca,42.8143,-0.27607,32,
740,0,Refugio CASAVELLA,102.0,0,1491.0,Spain, Catalonia, Girona,42.3395,1.95497,22,
741,0,Refugio COLOMERS II,40.0,0,2130.0,Spain, Catalonia, Lleida,42.6266,0.921803,20,
742,0,Refugio Cañada Mergosa,5.0,1,1720.0,Spain, Andalusia, Jaén,37.9811,-2.70995,18,1.0
743,0,Refugio Font Nova,15.0,1,444.0,Spain, Catalonia, Tarragona,40.9,0.43028,2,2.0
744,0,Refugio Pino Cacho,7.0,1,1000.0,Spain, Valencian community, Castellón,40.1899,-0.44061,28,
745,1,Camping El Torcal,,0,611.0,Spain, Andalusia, Málaga,36.9849,-4.53154,5,1.0
746,0,Refugio de Batisielles,4.0,1,2.0,Spain, Aragon, Huesca,42.6514,0.499706,30,1.0
747,1,Moli Serradell,,0,805.0,Spain, Catalonia, Girona,42.2356,2.11864,21,
748,1,Camping Fonts de l'Algar,,0,156.0,Spain, Valencian community, Alicante,38.6543,-0.092527,70,
749,0,Refugio ROSABAILA,4.0,1,1345.0,Spain, La rioja, La Rioja,42.0519,-2.86384,4,
750,0,Refugio SEQUER,54.0,0,856.0,Spain, Valencian community, Valencia,39.7028,-1.12926,34,
751,1,Manzanos,,0,25.0,Spain, Galicia, A Coruña,43.3492,-8.33556,1,
752,0,Refugio Chaparrilla,6.0,1,1810.0,Spain, Aragon, Teruel,40.3855,-0.6547,0,3.0
753,0,Refuge de Orri de Riberola,8.0,1,1810.0,France, Occitanie, Pyrénées-Orientales,42.4606,2.1756,2,4.0
754,0,Refugio cabaña Vega de Liordes,6.0,1,1860.0,Spain, Castile and león, León,43.1518,-4.84959,27,
755,0,Refugio CASILLA DE LA LASTRA,,0,867.0,Spain, Castile-la mancha, Guadalajara,40.8913,-3.43565,1,
756,0,Refugio OZCABA 2,,0,1199.0,Spain, Cantabria, Cantabria,43.0887,-4.24037,5,
757,1,Camping Municipal Las Camaretas,,0,617.0,Spain, Andalusia, Málaga,36.6145,-5.34223,10,
758,1,Los Vives,,0,878.0,Spain, Aragon, Huesca,42.5612,0.251691,10,
759,0,Refugio METALICO,8.0,0,2262.0,Spain, La rioja, La Rioja,42.2422,-2.97229,12,
760,1,Camping Os Castros,,0,59.0,Spain, Galicia, A Coruña,42.6891,-9.02212,0,
761,1,Almanat,,0,3.0,Spain, Andalusia, Málaga,36.7267,-4.11333,4,1.0
762,0,Refugio Font Verd,14.0,1,1880.0,Andorra, Escaldes-engordany, Escaldes-engordany,42.4921,1.59454,90,5.0
763,1,Camping Orgiva,,0,327.0,Spain, Andalusia, Granada,36.887,-3.41746,8,
764,0,Cabane Jasse Cady,4.0,1,1975.0,France, Occitanie, Pyrénées-Orientales,42.5055,2.43126,2,2.0
765,0,Refugio de Illa,12.0,1,2488.0,Andorra, Encamp, Encamp,42.495,1.65628,90,5.0
766,0,Cabane de Aixeques,5.0,1,1691.0,France, Occitanie, Pyrénées-Orientales,42.4762,2.18184,3,2.0
767,0,Refugio MALNIU,54.0,0,2123.0,Spain, Catalonia, Girona,42.4644,1.78596,63,6.0
768,0,Refugio BELAGUA,140.0,0,1428.0,Spain, Navarre, Navarre,42.9451,-0.834884,65,
769,1,O'Munio,,0,27.0,Spain, Galicia, Pontevedra,42.0619,-8.88888,2,
770,1,Camping Benabarre,,0,753.0,Spain, Aragon, Huesca,42.1115,0.48098,9,1.0
771,0,Refugio AZPEGI,14.0,1,967.0,Spain, Navarre, Navarre,43.0322,-1.22736,8,
772,0,Refugio CHOPERA,8.0,0,787.0,Spain, Castile and león, Salamanca,40.354,-6.68929,0,
773,0,Albergue de Miedes de Atienza,12.0,1,1.0,Spain, Castile-la mancha, Guadalajara,41.2669,-2.9633,0,3.0
774,0,Refugio LAGUNA DEL DUQUE,8.0,1,1612.0,Spain, Castile and león, Ávila,40.3051,-5.6817,5,
775,0,Refugio Albite,50.0,0,910.0,Spain, Galicia, Ourense,41.9058,-8.00436,0,8.0
776,0,Refugio JOU DE LOS CABRONES,,0,2100.0,Spain, Asturias, Asturias,43.214,-4.85755,25,
777,0,Refugio Calcilarruego,4.0,1,1860.0,Spain, Aragon, Huesca,42.6414,-0.054236,23,
778,0,Refugio SAN ADRIAN,50.0,0,980.0,Spain, Basque country, Gipuzkoa,42.9372,-2.30653,63,
779,0,Refugio Monte Coto Pinoso,15.0,0,730.0,Spain, Valencian community, Alicante,38.3816,-0.96012,35,5.0
780,0,Refugio SEJAS SANABRIA,6.0,1,876.0,Spain, Castile and león, Zamora,42.0691,-6.36635,1,
781,0,Cabane de Pierrefitte,5.0,1,1835.0,France, Occitanie, Hautes-Pyrénées,42.8467,0.050871,39,2.0
782,0,Refugio CASA PI,,0,1107.0,Spain, Castile and león, Burgos,41.8979,-3.29691,3,
783,1,Camping El Genal,,0,231.0,Spain, Andalusia, Málaga,36.5668,-5.24709,10,
784,1,Camping El Forcallo,,0,1580.0,Spain, Aragon, Huesca,42.6609,0.369494,26,
785,1,Coroso,,0,10.0,Spain, Galicia, A Coruña,42.57,-8.97139,1,
786,0,Refugio LLOSAS CABANA,2.0,1,2100.0,Spain, Aragon, Huesca,42.6097,0.641548,25,
787,0,Refugio ARTIGA LONGA,10.0,1,1715.0,Spain, Catalonia, Lleida,42.5478,0.759861,16,
788,0,Refugio BODEGON LOS ANCHOS,4.0,1,1430.0,Spain, Andalusia, Jaén,38.2269,-2.58738,23,
789,0,Refugio CASETA CABANAS,,0,2031.0,Spain, Andalusia, Jaén,37.8119,-2.95538,14,
790,0,Refugio Cerro de la Muda,5.0,1,1188.0,Spain, Castile-la mancha, Albacete,38.6282,-2.3107,3,
791,0,Refugio POSTIL DE SONA,20.0,0,1526.0,Spain, Castile and león, Palencia,42.9601,-4.69324,13,
792,0,Refugi del Pla de l'Estany,10.0,1,2050.0,Andorra, La massana, La massana,42.5939,1.46111,89,2.0
793,0,Refugio COLORAOS LOS,,0,2094.0,Spain, Andalusia, Almería,36.9298,-2.85729,1,
794,0,Refugio de Urizosas,10.0,1,872.0,Spain, Cantabria, Cantabria,43.2436,-4.18326,4,
795,1,Camping Malvarrosa de Corinto,,0,3.0,Spain, Valencian community, Valencia,39.7198,-0.1928,22,
796,0,Refugio SECA LA,4.0,1,1349.0,Spain, Castile and león, Ávila,40.2814,-5.42206,3,
797,0,Refugio CALHAUS,4.0,1,1929.0,Spain, Catalonia, Lleida,42.7682,0.910007,18,
798,1,El Eden,,0,1.0,Spain, Galicia, Pontevedra,42.5383,-8.87007,1,
799,0,Refugio Molino de los Cuchillos,18.0,1,923.0,Spain, Valencian community, Valencia,40.0528,-1.19607,23,7.0
800,1,Campo Eva,,0,138.0,Spain, Valencian community, Alicante,38.2918,-0.686009,43,
801,1,Camping Buganvilla,,0,40.0,Spain, Andalusia, Málaga,36.5026,-4.80447,14,
802,1,Los Gallardos,,0,104.0,Spain, Andalusia, Almería,37.1845,-1.92402,0,1.0
803,0,Refugio LEYVA,,0,1156.0,Spain, Region of murcia, Murcia,37.8834,-1.54241,16,
804,0,Refugi Guardat Borda de Sorteny,50.0,0,1965.0,Andorra, Ordino, Ordino,42.6251,1.57556,87,3.0
805,1,Zona acampada controlada - Fuente de los Cerezos,,1,947.0,Spain, Andalusia, Jaén,38.1622,-2.84788,20,1.0
806,0,Refugi Ventosa i Calvell,69.0,0,2213.0,Spain, Catalonia, Lleida,42.6053,0.87739,21,6.0
807,0,Refugio LOMAS DE JARA,20.0,0,769.0,Spain, Valencian community, Alicante,38.6399,-0.746641,60,
808,0,Refugio TRES FUENTES,8.0,1,1930.0,Spain, Castile and león, Soria,41.9709,-2.84496,4,
809,0,Refugio RAS CARANCA,,1,1831.0,France, Occitanie, Pyrénées-Orientales,42.4644,2.22391,4,
810,0,Refugio MASIA RABITA,,0,1260.0,Spain, Aragon, Teruel,40.3933,-1.42166,5,
811,1,El Teularet,,0,753.0,Spain, Valencian community, Valencia,38.9234,-0.841319,19,
812,0,Refugio COGULLONS,25.0,0,1039.0,Spain, Catalonia, Tarragona,41.3322,1.07991,28,
813,1,Camping Irache,,0,567.0,Spain, Navarre, Navarre,42.646,-2.05848,4,1.0
814,0,Refugi Besiberri,18.0,1,2221.0,Spain, Catalonia, Lleida,42.6046,0.8092,21,4.0
815,0,Refugio del Caballo,10.0,1,2860.0,Spain, Andalusia, Granada,37.0142,-3.43707,8,2.0
816,0,Caseta Ruablas,4.0,1,1720.0,Spain, Aragon, Huesca,42.6974,-0.28248,26,3.0
817,1,Camping Barraquetes,,0,2.0,Spain, Valencian community, Valencia,39.2418,-0.263714,16,
818,0,Refugio de los Pescadores,6.0,1,2528.0,Spain, Castile and león, Palencia,42.9384,-4.64265,8,3.0
819,1,Camping Zuriza,,0,1202.0,Spain, Aragon, Huesca,42.8655,-0.81387,64,
820,0,Refugio del Cebollar,20.0,1,2600.0,Spain, Andalusia, Granada,37.0167,-3.39587,8,2.0
821,0,Refugio EDMUNDO HERRERO,,0,2082.0,Spain, Canary islands, Santa Cruz de Tenerife,28.2135,-16.6278,66,
822,0,Refugio del Hundido de Armallones,,1,857.0,Spain, Castile-la mancha, Guadalajara,40.7645,-2.37841,1,
823,0,Refugio de La Mina,10.0,1,1240.0,Spain, Aragon, Huesca,42.8557,-0.69518,74,
824,1,Camping Bolaso,,0,380.0,Spain, Aragon, Zaragoza,42.178,-1.18502,0,1.0
825,0,Refugio de Campohermoso,4.0,1,1534.0,Spain, Castile and león, León,42.8714,-6.00421,5,2.0
826,0,Refugio El Moral,8.0,1,1219.0,Spain, Cantabria, Cantabria,43.1624,-4.16285,4,
827,0,Refugio GORG BLAU,8.0,0,620.0,Spain, Balearic islands, Palma de Mallorca,39.8001,2.81148,5,
828,0,Refugi Pont Romà,38.0,0,53.0,Spain, Balearic islands, Palma de Mallorca,39.8824,3.01365,4,
829,1,Camping Parc el Pont,,0,455.0,Spain, Catalonia, Barcelona,41.9343,2.41027,21,
830,1,camping la fresneda,24.0,0,565.0,Spain, Aragon, Teruel,40.9066,0.0626397,0,7.0
831,0,Refugio COLLADO JERMOSO,30.0,0,2064.0,Spain, Castile and león, León,43.173,-4.8691,28,7.0
832,0,Refugio HOYAS DE AUDAFE,,0,1264.0,Spain, Andalusia, Almería,37.2385,-2.85058,0,
833,1,Casa,,0,46.0,Spain, Valencian community, Valencia,39.0641,-0.444017,54,
834,1,Càmping Turismar,,0,29.0,Spain, Catalonia, Girona,41.7306,2.91391,14,
835,1,Torre de la Peña,,0,19.0,Spain, Andalusia, Cádiz,36.057,-5.65954,0,
836,0,Cabana del Pas Estret,2.0,1,2070.0,Spain, Catalonia, Lleida,42.793,0.889533,17,1.0
837,1,Camping Las Palmeras,,0,3.0,Spain, Catalonia, Tarragona,41.1305,1.30359,16,
838,0,Refugio de Alon,7.0,1,1900.0,Spain, Aragon, Huesca,42.5528,0.323253,10,2.0
839,1,Camping La Bolera,150.0,0,998.0,Spain, Andalusia, Jaén,37.76,-2.91276,12,1.0
840,1,Càmping Begur,,0,150.0,Spain, Catalonia, Girona,41.9403,3.2,20,
841,1,Los Pinos,,0,29.0,Spain, Valencian community, Castellón,40.3788,0.388431,11,
842,1,Hidden Valley Andalucia,,0,314.0,Spain, Andalusia, Málaga,36.8368,-4.71408,13,
843,1,Càmping Era Lana,,0,770.0,Spain, Catalonia, Lleida,42.7561,0.694585,23,
844,1,Los Gazules,,0,93.0,Spain, Andalusia, Cádiz,36.4634,-5.66529,0,
845,0,Refugi del Comapedrosa,48.0,0,2265.0,Andorra, La massana, La massana,42.5789,1.45,91,6.0
846,0,Refugio CABANA,4.0,1,1574.0,Spain, Aragon, Huesca,42.6362,-0.025709,21,
847,0,Aprisco de Mecina,6.0,1,2100.0,Spain, Andalusia, Granada,37.0573,-3.13795,8,2.0
848,1,Camping O'Paraiso,,0,8.0,Spain, Galicia, A Coruña,43.1049,-9.16439,1,
849,0,Refugio LIBAR,,0,990.0,Spain, Andalusia, Málaga,36.6833,-5.30986,9,
850,0,Refugio GERDAR EL,4.0,0,153.0,Spain, Catalonia, Lleida,42.6377,1.0395,22,
851,1,Camping Martisol,,0,45.0,Spain, Galicia, A Coruña,43.3409,-8.22975,1,
852,0,Refugio de la Canova de Talaixà,10.0,1,755.0,Spain, Catalonia, Girona,42.3001,2.57216,18,2.0
853,0,Refugio ALTO VEGA,10.0,1,1500.0,Spain, Castile-la mancha, Cuenca,40.4188,-1.90581,4,
854,1,Camping de Veguellina,,0,817.0,Spain, Castile and león, León,42.4345,-5.87507,0,
855,1,Camping Selva de Oza,,0,1131.0,Spain, Aragon, Huesca,42.834,-0.71114,74,
856,1,Camping Pedro Ponce,,0,803.0,Spain, Castile and león, León,42.3716,-5.04249,1,
857,0,Refugio BARQUILLOS LOS,3.0,1,1855.0,Spain, Castile and león, Ávila,40.3003,-5.30114,3,
858,1,Ainsa,,0,541.0,Spain, Aragon, Huesca,42.4212,0.1498,3,
859,0,Refugio IBON DE IP,2.0,1,2020.0,Spain, Aragon, Huesca,42.7244,-0.468525,25,
860,0,Cabaña de Usategieta,5.0,1,442.0,Spain, Navarre, Navarre,43.2558,-1.61495,41,1.0
861,0,Refugio TRANQUERA,,1,682.0,Spain, Aragon, Zaragoza,41.2534,-1.79348,4,
862,0,Refugio del Frade,16.0,1,1700.0,Spain, Castile and león, León,43.1687,-4.97182,32,
863,1,Camping Playa España,,0,13.0,Spain, Asturias, Asturias,43.5431,-5.52945,20,
864,0,Refugio La Brana,3.0,1,1450.0,Spain, Castile and león, León,42.8166,-6.32196,5,
865,1,Area Auto Caravanas,,0,81.0,Spain, Andalusia, Almería,37.2646,-1.85723,0,1.0
866,1,Isla Cristina Camping Giralda,,0,12.0,Spain, Andalusia, Huelva,37.1999,-7.30114,1,
867,0,Refugio Carche,10.0,1,1372.0,Spain, Region of murcia, Murcia,38.4277,-1.16417,7,5.0
868,0,Refugio ALCONERA LA,45.0,1,1500.0,Spain, Castile-la mancha, Cuenca,40.3177,-1.88611,4,
869,0,Cabane pastoral des Mariailles,4.0,1,1691.0,France, Occitanie, Pyrénées-Orientales,42.4983,2.40963,2,1.0
870,0,Refugio CASETON DE ANDARA,,0,1739.0,Spain, Cantabria, Cantabria,43.214,-4.71218,23,
871,0,Refugio Campo Espino,12.0,1,1700.0,Spain, Andalusia, Jaén,38.0327,-2.72284,21,2.0
872,0,Cabane Culasse (villa Simon),5.0,1,1834.0,France, Occitanie, Pyrénées-Orientales,42.4184,2.10396,4,4.0
873,1,El Zorro,,0,895.0,Spain, Region of murcia, Murcia,37.643,-1.9483,2,1.0
874,0,Refugio PLAN AIGUALLUT,4.0,1,2070.0,Spain, Aragon, Huesca,42.6656,0.666388,24,
875,0,Refugio del Puerto de Peña Hincada,4.0,1,1375.0,Spain, La rioja, La Rioja,42.1614,-2.75938,3,3.0
876,0,Refugio TRESAGUAS,8.0,1,1121.0,Spain, Castile and león, Burgos,42.272,-3.13671,9,
877,0,Refugio del Paso de los Caballos,5.0,1,2312.0,Spain, Aragon, Huesca,42.6687,0.290523,22,1.0
878,0,Refugio NOGAL BARRANCO,12.0,1,1300.0,Spain, Castile and león, Ávila,40.2345,-5.16245,4,
879,0,Refugio BORDA SORTENY,8.0,1,1953.0,Andorra, Ordino, Ordino,42.6225,1.56406,87,
880,0,Collado de San Martín,4.0,1,1850.0,Spain, Navarre, Navarre,42.9686,-0.767725,69,2.0
881,1,Camping La Fundicion,,0,424.0,Spain, Andalusia, Seville,37.9384,-5.68382,0,
882,0,Refugio TACITA,23.0,0,1326.0,Spain, Catalonia, Lleida,42.469,0.991014,20,
883,1,Parque Natural de los Alcornocales,,0,41.0,Spain, Andalusia, Cádiz,36.3092,-5.44731,1,
884,0,Refugio FUENTE SOMERA,,1,1094.0,Spain, Castile and león, Soria,41.7364,-2.92444,2,
885,0,Casilla forestal del Peñón,3.0,1,1715.0,Spain, Andalusia, Granada,37.1423,-3.13921,4,1.0
886,0,Refugio de las Minas de la Cruz,4.0,1,2025.0,Spain, Andalusia, Granada,37.3645,-2.84828,0,2.0
887,0,Refugio Ribaescorjada,6.0,1,2075.0,Andorra, Canillo, Canillo,42.5659,1.64072,85,4.0
888,0,Refugio ENMEDIO,8.0,1,1600.0,Spain, Castile and león, Ávila,40.6749,-4.1949,16,
889,1,Camping Bellavista,,0,25.0,Spain, Valencian community, Castellón,40.3598,0.395483,10,
890,0,Refugio Comaubaga,15.0,1,2015.0,Andorra, Ordino, Ordino,42.6068,1.55053,87,5.0
891,0,Refugio Forestal de Sant Jordi,10.0,1,1600.0,Spain, Catalonia, Girona,42.2701,2.21109,16,2.0
892,0,Cabaña de la Artiga de Lin,12.0,1,1475.0,Spain, Catalonia, Lleida,42.6785,0.704112,24,3.0
893,0,Refugio de la Sagra,10.0,1,1525.0,Spain, Andalusia, Granada,37.967,-2.54045,8,1.0
894,0,Ermita de Santa Bàrbara (lliure),15.0,1,831.0,Spain, Catalonia, Girona,41.9263,2.61813,28,
895,1,Camping Errota-El Molino,,0,329.0,Spain, Navarre, Navarre,42.6242,-1.84222,0,
896,0,Refugio JUNCLAR Libre,30.0,1,2299.0,Spain, Catalonia, Lleida,42.3251,1.82864,24,
897,0,Refugio MAZORRA,,0,612.0,Spain, Castile and león, Burgos,42.8481,-3.60358,26,
898,0,Refugio TRIGONIERO,,1,1990.0,Spain, Aragon, Huesca,42.7037,0.244858,27,
899,0,Refugio BARROSA,4.0,1,1930.0,Spain, Aragon, Huesca,42.7078,0.155237,31,
900,1,Almayata Costa,,0,3.0,Spain, Andalusia, Málaga,36.7252,-4.13523,4,
901,0,Refugio COTO FERRER,20.0,0,600.0,Spain, Valencian community, Valencia,39.3767,-0.995148,20,
902,1,Camping La Font,52.0,0,708.0,Spain, Aragon, Teruel,40.8091,0.0690827,5,5.0
903,0,Refugio Aceral,10.0,1,1810.0,Spain, Andalusia, Granada,37.105,-3.32991,8,2.0
904,1,Camping Carlos III,,0,172.0,Spain, Andalusia, Córdoba,37.683,-4.91968,0,
905,0,Refugio BARGASERA,3.0,1,2080.0,Spain, Aragon, Huesca,42.618,0.302591,20,2.0
906,0,Refugio CAL PERE SIDRO,24.0,0,1585.0,Spain, Catalonia, Lleida,42.4039,1.76615,69,
907,1,Casa Cuevas,,0,474.0,Spain, Castile and león, León,43.2131,-4.90334,26,1.0
908,1,Amaido,,0,23.0,Spain, Asturias, Asturias,43.4129,-7.14248,13,1.0
909,0,Refugio MOSQUEIRO,,0,1515.0,Spain, Castile and león, León,42.7363,-6.88413,3,
910,0,Refugio SANTA MARINA,,1,1055.0,Spain, Navarre, Navarre,42.871,-2.11434,43,
911,0,Refugio del Chullo,2.0,1,2520.0,Spain, Andalusia, Almería,37.0969,-3.00416,1,
912,0,Refugio TOSSALS VERDS,42.0,0,514.0,Spain, Balearic islands, Palma de Mallorca,39.7687,2.81908,6,6.0
913,0,Refugio MULETA,30.0,0,107.0,Spain, Balearic islands, Palma de Mallorca,39.7968,2.68099,6,6.0
914,0,Refugio NAPAZAL CASETAS,,1,1930.0,Spain, Aragon, Huesca,42.765,-0.608338,46,
915,0,Refugi Agulles “Vicenç Barbé”,20.0,0,900.0,Spain, Catalonia, Barcelona,41.6063,1.7848,49,5.0
916,0,Refugio del Corral de la Teresa,4.0,1,1500.0,Spain, Castile-la mancha, Albacete,38.5872,-2.40137,4,
917,0,Refugio Mistresa,25.0,1,1900.0,Spain, Aragon, Huesca,42.7832,-0.616787,63,1.0
918,0,Refugi Els Esbarzerets,,1,1164.0,Spain, Valencian community, Alicante,38.6108,-0.508219,75,
919,0,Refugio PENAGUDA,,1,1094.0,Spain, Castile and león, Burgos,41.8769,-3.24939,5,
920,0,Refugi forestal Lobo Alto,,1,903.0,Spain, Valencian community, Valencia,39.1166,-1.2338,3,
921,0,Refugio COLL MEROLA,25.0,0,1104.0,Spain, Catalonia, Girona,42.2471,2.04106,25,
922,0,Refugio MILLARES,,1,2350.0,Spain, Aragon, Huesca,42.6403,0.409573,22,
923,0,Refugio Montinier,12.0,1,1700.0,Spain, Aragon, Huesca,42.6181,0.19029,23,3.0
924,0,Refugio de Bujaruelo,60.0,0,1338.0,Spain, Aragon, Huesca,42.6963,-0.105642,25,
925,0,Refugio LAGUNA BEZAS,,1,1239.0,Spain, Aragon, Teruel,40.3008,-1.318,10,
926,0,Refugio MOLINO CABALLO,,1,1286.0,Spain, Castile and león, Segovia,40.7479,-4.1494,18,
927,1,Puerta de la Alpujarra,,0,514.0,Spain, Andalusia, Granada,36.9039,-3.4389,8,
928,0,Refugi Ventosa i Calvell (lliure),8.0,1,2213.0,Spain, Catalonia, Lleida,42.6053,0.87739,21,1.0
929,1,Parking,,0,87.0,Spain, Catalonia, Girona,42.3969,2.88113,10,
930,1,"Camping Venta de Contreras, Minglanilla",,0,628.0,Spain, Castile-la mancha, Cuenca,39.5409,-1.50854,11,
931,0,Refugi Mont-roig “Enric Pujol”,18.0,1,2287.0,Spain, Catalonia, Lleida,42.7059,1.189,19,4.0
932,0,Refugio de Riglos,80.0,0,678.0,Spain, Aragon, Huesca,42.3488,-0.725623,3,
933,0,Refugio Boca Del Becedo,10.0,1,1619.0,Spain, Castile and león, Soria,41.9536,-2.85395,4,1.0
934,1,Parque Tropical,,0,12.0,Spain, Andalusia, Málaga,36.454,-5.08079,13,
935,0,Refugio de Lizara,75.0,0,1540.0,Spain, Aragon, Huesca,42.7659,-0.632735,46,6.0
936,0,Refugio CHORRO EL,6.0,1,1343.0,Spain, Castile and león, Segovia,41.0265,-3.83046,1,
937,0,Refugio Plan de Aniz,6.0,1,1700.0,Spain, Aragon, Huesca,42.7818,-0.676961,61,
938,0,Refugio del Paso de las Alforjas,8.0,1,1422.0,Spain, Navarre, Navarre,42.9554,-1.1019,2,2.0
939,1,Aidamar,,0,3.0,Spain, Catalonia, Barcelona,41.6493,2.77133,13,
940,0,Refugio de la Cabanella,8.0,1,1810.0,Spain, Catalonia, Girona,42.4479,1.8356,45,2.0
941,0,Refugio Espigar,16.0,1,973.0,Spain, Aragon, Zaragoza,41.2687,-1.43304,6,2.0
942,0,Refugio CENTRO SCOUT ARTICOSA,150.0,0,1620.0,Spain, Canary islands, Santa Cruz de Tenerife,28.3825,-16.4469,59,
943,1,Camping Cortijo San Isicio,50.0,0,838.0,Spain, Andalusia, Jaén,37.9043,-3.01359,16,6.0
944,0,Refugio DEHESA DE LA YEDRA LA,12.0,1,1186.0,Spain, Andalusia, Almería,37.1549,-2.89691,1,
945,0,Refugi Collado de la Perdiz,,1,731.0,Spain, Valencian community, Valencia,39.791,-1.1247,24,
946,1,large carpark,,0,-5.0,Spain, Region of murcia, Murcia,37.7756,-0.741921,3,
947,1,Camping Playa Penarronda,,0,8.0,Spain, Asturias, Asturias,43.5516,-6.99763,9,
948,0,Refugio Prat Premier,9.0,1,2235.0,Andorra, Escaldes-engordany, Escaldes-engordany,42.4785,1.55024,91,5.0
949,1,Eucaliptus,,0,-1.0,Spain, Catalonia, Tarragona,40.6569,0.779914,0,
950,1,Relax Nat,,0,41.0,Spain, Catalonia, Girona,41.8914,3.15694,20,
951,0,Refugio de Bucierca,10.0,1,1000.0,Spain, Cantabria, Cantabria,43.1174,-4.31495,4,4.0
952,0,Refugio del Circo de Cuiña,4.0,1,1760.0,Spain, Castile and león, León,42.8506,-6.8308,5,2.0
953,1,Buchaca,,0,828.0,Spain, Catalonia, Lleida,42.3731,1.35784,47,
954,1,Camping Molilabad,,0,422.0,Spain, Valencian community, Castellón,40.6692,0.253359,6,
955,0,Ermita de Sant Pere Sestronques,15.0,0,191.0,Spain, Catalonia, Girona,41.9399,2.66199,28,
956,0,Cabeza Líjar,5.0,1,1820.0,Spain, Community of madrid, Madrid,40.6896,-4.16035,18,
957,1,Los Arenales,,0,646.0,Spain, Castile-la mancha, Ciudad Real,38.8811,-3.69579,1,
958,0,Refugio Cabaña Verónica,6.0,0,2331.0,Spain, Cantabria, Cantabria,43.1761,-4.83412,27,4.0
959,0,Refugio FUENTE INFANTES,,0,1850.0,Spain, Castile and león, Segovia,40.9004,-3.96413,8,
960,0,Refugio CUBILAR DL BARRANCO,4.0,0,1800.0,Spain, Aragon, Huesca,42.7603,-0.598438,42,
961,0,Refugio CUBILLO 2,,1,1142.0,Spain, Castile and león, Soria,41.8233,-2.85347,2,
962,0,Refugio CANAL ROYA,,1,1550.0,Spain, Aragon, Huesca,42.7898,-0.481976,59,
963,0,La Gola,15.0,1,2230.0,Spain, Catalonia, Lleida,42.6819,1.16921,17,3.0
964,0,Punto de Acogida del Camino del Cid de Aldehuela,10.0,1,1138.0,Spain, Castile-la mancha, Guadalajara,40.806,-1.78562,0,2.0
965,0,Refugio COLL DE PAL,40.0,0,1920.0,Spain, Catalonia, Barcelona,42.2931,1.90584,25,
966,0,Refugio de Cabana Sorda,20.0,1,2295.0,Andorra, Canillo, Canillo,42.6115,1.67238,86,5.0
967,0,Refugi el Bagatell,11.0,0,631.0,Spain, Catalonia, Girona,42.2618,2.44294,17,3.0
968,1,Zona acampada controlada Refugi Malniu,,0,2123.0,Spain, Catalonia, Girona,42.4637,1.78421,64,3.0
969,0,Refugio COMUNA CAIMARI,8.0,0,484.0,Spain, Balearic islands, Palma de Mallorca,39.7982,2.89634,6,
970,0,Refugio CANANA DE GESSA,3.0,1,1939.0,Spain, Catalonia, Lleida,42.737,0.962117,14,
971,0,Punto de Acogida del Camino del Cid de Pozuel del Campo,20.0,1,1.0,Spain, Aragon, Teruel,40.7709,-1.5065,0,1.0
972,1,Campamento Santa María del Monte,,0,884.0,Spain, Castile and león, Ávila,40.3972,-4.7875,2,
973,1,El Pinajarro,,0,613.0,Spain, Extremadura, Cáceres,40.2696,-5.88026,8,
974,0,Refugio GAVIN,5.0,1,1500.0,Spain, Aragon, Huesca,42.6596,-0.242818,20,
975,0,Refugio de Telera,30.0,1,1550.0,Spain, Aragon, Huesca,42.7019,-0.349022,20,1.0
976,0,Refugio CUBERES-MIRO,28.0,0,1495.0,Spain, Catalonia, Lleida,42.274,1.13673,7,
977,0,Refugio SON MORAGUES,15.0,0,748.0,Spain, Balearic islands, Palma de Mallorca,39.727,2.6541,6,
978,0,Refugio MONTANEROS LIEBANA,15.0,0,1323.0,Spain, Cantabria, Cantabria,43.1495,-4.49503,8,
979,0,Refugio CASTROVERDE,,1,1155.0,Spain, Castile and león, Soria,41.8951,-2.97183,6,
980,1,Campamento Luis Manuel López,,0,1051.0,Spain, Castile and león, Ávila,40.2305,-5.16026,4,
981,1,Complejo Puente Romano,,0,1001.0,Spain, Cantabria, Cantabria,43.0123,-4.27389,5,
982,0,Refugio BARLETO,,1,2150.0,Spain, Aragon, Huesca,42.6397,0.27696,19,
983,0,Refugio de Dorria,15.0,1,1952.0,Spain, Catalonia, Girona,42.3446,2.05711,17,
984,0,Refugio de Sacejo,8.0,1,1321.0,Spain, Andalusia, Jaén,37.9047,-2.96213,17,2.0
985,0,Refugio de Larraitza,30.0,1,1060.0,Spain, Navarre, Navarre,42.7508,-2.06289,11,3.0
986,0,Refugio LEANDRE LERIN,20.0,0,587.0,Spain, Catalonia, Tarragona,41.2168,0.725097,15,
987,0,Caseta de la Bandera,4.0,1,1332.0,Spain, Andalusia, Jaén,38.208,-2.78075,25,1.0
988,0,Fuente Genaro,15.0,1,1260.0,Spain, Aragon, Zaragoza,41.3793,-1.498,5,3.0
989,1,leon,,0,930.0,Spain, Castile and león, León,42.5893,-5.53208,0,
990,1,Zona de Aparcamiento Autocaravanas (Motorhome stop),,0,459.0,Spain, Asturias, Asturias,43.3432,-6.85123,15,
991,0,Ermita de Santa Brígida,20.0,0,361.0,Spain, Catalonia, Girona,42.0207,2.61049,30,
992,0,Refugi de Pereroles,12.0,0,1049.0,Spain, Valencian community, Castellón,40.694,-0.0657118,21,4.0
993,0,Refugi de Juclar,43.0,0,2310.0,Andorra, Canillo, Canillo,42.6074,1.71573,84,7.0
994,1,LLoma Belart I,,0,1309.0,Spain, Valencian community, Castellón,40.2481,-0.34845,29,
995,0,Refugio LAGUARRA,3.0,0,1173.0,Spain, Castile and león, Burgos,42.2597,-3.20658,9,
996,0,El Pozo de la Nieve,20.0,1,1470.0,Spain, Castile and león, Ávila,40.3559,-4.54311,5,1.0
997,1,Camping Torremolinos,,0,21.0,Spain, Andalusia, Málaga,36.6464,-4.48869,13,
998,1,Zona de Acampada las Acebeas,,0,1285.0,Spain, Andalusia, Jaén,38.3253,-2.57458,20,
999,1,Camping de Carrizo de la Ribera,,0,872.0,Spain, Castile and león, León,42.5876,-5.82077,0,
1000,0,Refugio RECAESENS,48.0,0,888.0,Spain, Catalonia, Tarragona,41.2869,1.09835,31,6.0
1001,0,Refugio GENTO,,0,2144.0,Spain, Catalonia, Lleida,42.5101,0.996583,21,
1002,0,Santuari de Rocacorba,40.0,0,907.0,Spain, Catalonia, Girona,42.0673,2.68765,30,
1003,1,Cabeiro,,0,11.0,Spain, Galicia, A Coruña,42.734,-8.99155,0,
1004,0,Refugio de Gabardito,45.0,0,1377.0,Spain, Aragon, Huesca,42.7873,-0.71188,53,3.0
1005,0,VIVAC HOYA MOROS,10.0,0,2300.0,Spain, Castile and león, Salamanca,40.2961,-5.73807,6,
1006,0,Refugio Majalserbal,15.0,1,1448.0,Spain, Andalusia, Jaén,38.0717,-2.89687,21,4.0
1007,1,laPresa,,0,428.0,Spain, Catalonia, Tarragona,41.2976,0.783636,12,
1008,0,VIVAC PLETA NOVA,,0,1951.0,Spain, Catalonia, Lleida,42.6283,0.73219,24,
1009,0,Refugio de José Manuel Vera,8.0,1,680.0,Spain, Valencian community, Alicante,38.6031,-0.20154,55,3.0
1010,0,Refugio DORNAQUE,,0,1244.0,Spain, Aragon, Teruel,40.3352,-1.36458,11,
1011,1,El Folgoso,,0,1039.0,Spain, Castile and león, Zamora,42.1311,-6.70186,11,
1012,1,Alto Mira,,0,424.0,Spain, Valencian community, Castellón,39.8749,-0.510613,48,
1013,1,Camping Las Palmeras,,0,221.0,Spain, Region of murcia, Murcia,38.2054,-1.11078,21,3.0
1014,0,Refugi Cova Negra,6.0,1,840.0,Spain, Valencian community, Alicante,38.6499,-0.7331,63,5.0
1015,0,Refugio MUNIDO,,1,2400.0,Spain, Aragon, Huesca,42.6028,0.635098,25,
1016,0,Refugio LLANO EL,30.0,0,350.0,Spain, Asturias, Asturias,43.2034,-6.01468,26,
1017,1,Camping Isoba,,0,1384.0,Spain, Castile and león, León,43.0545,-5.32504,34,
1018,0,Refugio ARREMOULIT,29.0,0,2305.0,Spain, Aragon, Huesca,42.5208,0.359902,9,
1019,0,Refugio de Prat-Cabrera,8.0,1,1650.0,France, Occitanie, Pyrénées-Orientales,42.5348,2.49447,3,2.0
1020,1,l'Ombra,,0,9.0,Spain, Catalonia, Girona,42.3711,3.1539,6,
1021,0,Refugio libre ELOLA - Laguna Grande,10.0,1,1947.0,Spain, Castile and león, Ávila,40.2505,-5.27989,3,3.0
1022,1,El Roble,,0,492.0,Spain, Aragon, Teruel,40.8824,0.126079,1,
1023,0,Refugio A SEARA DO CAUREL,,0,1016.0,Spain, Galicia, Lugo,42.5755,-7.09551,1,
1024,1,Camping Poboleda,,0,330.0,Spain, Catalonia, Tarragona,41.2328,0.843438,22,
1025,1,Camping Olé,,0,1.0,Spain, Valencian community, Valencia,38.8945,-0.0536713,60,
1026,0,Refugio HOYO BELLIDO,4.0,1,1380.0,Spain, La rioja, La Rioja,42.0474,-2.86233,4,
1027,0,Ermita d'Argimon,20.0,0,419.0,Spain, Catalonia, Girona,41.8305,2.6358,21,
1028,1,Camping Los Bermejales,,0,846.0,Spain, Andalusia, Granada,36.9942,-3.87972,3,
1029,0,Refugio COMA BINIFALDO,2.0,0,592.0,Spain, Balearic islands, Palma de Mallorca,39.8479,2.91486,5,
1030,0,Refugio ESPIGUETE,24.0,0,1425.0,Spain, Castile and león, Palencia,42.9729,-4.75773,18,
1031,1,El Madroñal,,0,732.0,Spain, Andalusia, Huelva,37.9049,-6.67277,6,
1032,1,Camping Pueblo Blanco,,0,607.0,Spain, Andalusia, Cádiz,36.9395,-5.21695,1,
1033,0,Refugio RESTANCA,80.0,0,2010.0,Spain, Catalonia, Lleida,42.6349,0.854508,20,5.0
1034,0,Refugio Casa de Piedra,88.0,0,1636.0,Spain, Aragon, Huesca,42.7644,-0.232195,27,
1035,0,Refugio Collado de Zamora,7.0,1,1449.0,Spain, Andalusia, Jaén,37.838,-2.99918,14,3.0
1036,0,Refugio Nahuja,3.0,1,1720.0,France, Occitanie, Pyrénées-Orientales,42.4168,2.01422,8,2.0
1037,1,FANG AVENTURA,,0,283.0,Spain, Catalonia, Girona,42.1114,2.68667,29,1.0
1038,0,Refugi Molières,18.0,1,2390.0,Spain, Catalonia, Lleida,42.6281,0.7193,24,2.0
1039,1,Camping cabañas Jimera De Libar,,0,386.0,Spain, Andalusia, Málaga,36.6545,-5.28915,10,3.0
1040,1,Tropicana,,0,4.0,Spain, Valencian community, Castellón,40.2211,0.268889,11,
1041,0,Refugio Rambla Seca,6.0,1,1593.0,Spain, Andalusia, Jaén,37.9466,-2.78661,22,2.0
1042,1,"Complejo de Turismo Rural ""Isla del Zújar""",,0,320.0,Spain, Extremadura, Badajoz,38.9084,-5.42664,0,
1043,0,Refugio FONT ARINSOLA,12.0,1,1890.0,Andorra, Sant julià de lòria, Sant julià de lòria,42.49,1.42629,92,
1044,0,Refugi Pla de les Llomes,8.0,1,591.0,Spain, Valencian community, Valencia,39.6993,-0.412483,30,
1045,0,Refugio BRANAS DE CALDAS,,0,1511.0,Spain, Castile and león, León,42.9552,-5.84373,8,
1046,0,Refugio CAL GUERXO,24.0,0,787.0,Spain, Catalonia, Lleida,42.3119,1.06791,9,
1047,1,Camping Asolaze,,0,928.0,Spain, Navarre, Navarre,42.9014,-0.883795,41,
1048,1,El Pinar,,0,4.0,Spain, Catalonia, Girona,41.6548,2.77831,15,
1049,1,Camping Cuevas del Becerro,,0,762.0,Spain, Andalusia, Málaga,36.8715,-5.04665,3,
1050,0,Refugio Ostacho,8.0,1,1400.0,Spain, Aragon, Huesca,42.4819,0.232515,4,2.0
1051,0,Refugio de las Alzadas de Villar de Acero,8.0,1,1211.0,Spain, Castile and león, León,42.7512,-6.87282,3,3.0
1052,1,Palmerias,,0,101.0,Spain, Valencian community, Alicante,38.2406,-0.811944,37,
1053,1,Alcampada con permiso,,0,402.0,Spain, Andalusia, Málaga,36.9171,-4.12019,4,
1054,1,Camping Alpujarras,,0,1077.0,Spain, Andalusia, Granada,37.0105,-3.0114,4,1.0
1055,0,Refugio VEGA TIJERA,4.0,1,1663.0,Spain, Castile and león, León,42.9956,-6.11691,14,
1056,1,Aralar,,0,585.0,Spain, Navarre, Navarre,42.9999,-1.88723,51,
1057,1,Camping Castalla,,0,979.0,Spain, Valencian community, Alicante,38.5255,-0.672757,67,
1058,0,Refugio Dios Te Salve,5.0,1,1700.0,Spain, Aragon, Huesca,42.7842,-0.68545,61,2.0
1059,0,Refugio ELOLA - Laguna Grande,65.0,0,1947.0,Spain, Castile and león, Ávila,40.2505,-5.27989,3,12.0
1060,0,Yenefrito,6.0,1,1860.0,Spain, Aragon, Huesca,42.7163,-0.21411,23,1.0
1061,0,Refugio de EL Cancho,4.0,1,1770.0,Spain, Castile and león, Ávila,40.2141,-5.50986,5,2.0
1062,0,Refugio OZA,40.0,1,1100.0,Spain, Aragon, Huesca,42.8317,-0.711891,74,
1063,0,Refugio de Cerrogordo,5.0,1,1298.0,Spain, Aragon, Zaragoza,41.7055,-1.76483,3,2.0
1064,0,Refugio PUENTE DE SIL,,1,1070.0,Spain, Aragon, Huesca,42.8128,-0.711531,64,
1065,1,Camping Pepe,,0,5.0,Spain, Valencian community, Valencia,38.8941,-0.0523805,58,
1066,0,Refugio BUSTUSIL,,0,1572.0,Spain, Castile and león, León,43.021,-6.16797,14,
1067,0,El Pradell,12.0,1,2127.0,Spain, Catalonia, Lleida,42.4416,1.64662,91,
1068,0,Refugio ROBLEDILLO,,0,1130.0,Spain, Castile and león, Soria,41.8668,-3.07547,6,
1069,0,Refugio SAUCEDA LA,,0,512.0,Spain, Andalusia, Málaga,36.5303,-5.58703,2,
1070,0,Cabañas de Cezy,5.0,1,1660.0,France, Nouvelle-aquitaine, Pyrénées-Atlantiques,42.9153,-0.39608,79,2.0
1071,1,Fuente Del Gallo,,0,22.0,Spain, Andalusia, Cádiz,36.2964,-6.10972,0,
1072,1,La Volta,,0,14.0,Spain, Valencian community, Castellón,40.3976,0.402336,11,1.0
1073,0,Refugio PARAMANOS,,1,816.0,Spain, La rioja, La Rioja,42.1809,-2.87182,5,
1074,1,Mas Patoxas,,0,34.0,Spain, Catalonia, Girona,41.9558,3.1575,21,
1075,0,Refugio HOSPITAL BENASQUE,,0,1747.0,Spain, Aragon, Huesca,42.6842,0.6122,27,
1076,0,Refugio Majada Baja,15.0,1,1800.0,Spain, Aragon, Zaragoza,41.7489,-1.79595,3,1.0
1077,1,Camping Aguilas - Urb. Los Géranéos n° 6,,0,65.0,Spain, Region of murcia, Murcia,37.4265,-1.55083,0,2.0
1078,1,Nautic Almatà,,0,1.0,Spain, Catalonia, Girona,42.2058,3.10583,6,1.0
1079,0,Caseta de la cruz de Montigalá,3.0,1,147.0,Spain, Catalonia, Barcelona,41.4643,2.231,29,
1080,0,Refugio YENEFRITO,8.0,1,1860.0,Spain, Aragon, Huesca,42.7163,-0.21639,23,
1081,1,Camping A Vouga,,0,9.0,Spain, Galicia, A Coruña,42.7606,-9.06291,0,
1082,0,Refugio Banderillas (viejo),4.0,1,1980.0,Spain, Andalusia, Jaén,38.0128,-2.78692,21,1.0
1083,0,Refugio PENAS ALTAS,,1,1279.0,Spain, Castile and león, Soria,41.8965,-2.98338,6,
1084,1,Dunas de San Anton,490.0,0,10.0,Spain, Andalusia, Cádiz,36.5875,-6.24077,0,
1085,0,Refugio CABANA DE PEREZ,8.0,0,1501.0,Spain, Castile and león, León,42.7983,-6.85728,4,
1086,0,Refugio BESURTA LA,8.0,0,1898.0,Spain, Aragon, Huesca,42.6789,0.650082,25,
1087,1,Les Pedres,,0,138.0,Spain, Catalonia, Girona,42.3731,2.91306,12,
1088,0,Refugio Distrito Forestal de Huesca,4.0,1,1384.0,Spain, Aragon, Huesca,42.7866,-0.71282,53,2.0
1089,1,Esponella,,0,112.0,Spain, Catalonia, Girona,42.1818,2.79492,24,
1090,0,Refugio COLLADO DE LIESBA,,0,1681.0,Spain, Cantabria, Cantabria,43.077,-4.74746,21,
1091,0,Refugio Mazobre,10.0,1,1565.0,Spain, Castile and león, Palencia,42.953,-4.77616,15,3.0
1092,1,Camping l'Alqueria,,0,9.0,Spain, Valencian community, Valencia,38.986,-0.163515,51,
1093,0,Refugio del Pla de la Espluga,15.0,1,1200.0,Spain, Catalonia, Girona,42.26,2.05484,24,1.0
1094,0,Refugio ROCA PIMES,10.0,1,2160.0,Andorra, Sant julià de lòria, Sant julià de lòria,42.4338,1.53582,91,
1095,1,Camping Lecina,,0,650.0,Spain, Aragon, Huesca,42.2288,0.0480664,8,
1096,0,Refugio de la Caseta de Llós,5.0,1,1300.0,Spain, Castile and león, León,43.1608,-4.95752,31,
1097,1,"Camping ""Las Cuevas""",,0,1055.0,Spain, Castile and león, León,42.8833,-5.39398,16,
1098,1,"Camping Expediciones (empresa de canyoning, camping cerrado)",,0,760.0,Spain, Aragon, Huesca,42.2456,-0.0696425,7,
1099,1,Camp. Bungalows Rio Jerte,,0,444.0,Spain, Extremadura, Cáceres,40.1688,-5.84463,8,
1100,0,Refugi d’Amitges,74.0,0,2380.0,Spain, Catalonia, Lleida,42.5967,0.984633,19,7.0
1101,0,Refugio NAJARRA,3.0,1,2100.0,Spain, Community of madrid, Madrid,40.8123,-3.83854,8,
1102,1,El Caballo Loco,,0,28.0,Spain, Valencian community, Alicante,38.4046,-0.419686,19,
1103,1,O Corgo - Muiños,,0,553.0,Spain, Galicia, Ourense,41.9628,-7.98327,0,
1104,1,Pico de la Miel,,0,1030.0,Spain, Community of madrid, Madrid,40.8581,-3.61639,0,
1105,0,Refugio casa forestal La Parra,11.0,1,1063.0,Spain, Andalusia, Jaén,38.1117,-2.89279,21,4.0
1106,1,El Jardin,,0,11.0,Spain, Valencian community, Alicante,38.3929,-0.41526,19,1.0
1107,1,Las Salinas,,0,,Spain, Catalonia, Tarragona,41.1299,1.30707,15,
1108,0,Finca de Prefacio,10.0,1,1595.0,Spain, Castile and león, Zamora,42.2087,-6.76166,12,4.0
1109,0,Refugio Les Clotes,8.0,1,968.0,Spain, Catalonia, Tarragona,40.8522,0.328864,1,4.0
1110,0,Refugio FUENTE DEL CHIVO,,0,1990.0,Spain, Cantabria, Cantabria,43.0454,-4.39547,2,
1111,1,Ribamar,,0,19.0,Spain, Valencian community, Castellón,40.2701,0.307511,11,
1112,0,Refugio Rabadá y Navarro,74.0,0,1520.0,Spain, Aragon, Teruel,40.1204,-1.03445,15,
1113,0,Refugi Josep Maria Blanc,60.0,0,2350.0,Spain, Catalonia, Lleida,42.5455,1.04439,22,8.0
1114,0,Refugio ARTIGA DE LIN,15.0,1,1465.0,Spain, Catalonia, Lleida,42.6783,0.707207,24,
1115,0,Refugio del Cerro de la Camorca,2.0,1,1814.0,Spain, Castile and león, Segovia,40.8252,-4.05141,11,1.0
1116,0,Refugio RIPERA 1,5.0,1,1560.0,Spain, Aragon, Huesca,42.7118,-0.23521,25,
1117,0,Refugio TRAPA,8.0,1,1770.0,Spain, Aragon, Huesca,42.6962,-0.499585,22,
1118,0,Refugio QUILLON,4.0,1,1785.0,Spain, Aragon, Huesca,42.6224,0.589856,23,
1119,0,Refugio COLOMERS,60.0,0,2127.0,Spain, Catalonia, Lleida,42.6243,0.920566,20,
1120,0,Refugio DAHESA LA,12.0,0,1022.0,Spain, Castile and león, Salamanca,40.3175,-5.92392,11,
1121,0,Refugio de la Laguna de las Yeguas,2.0,1,1820.0,Spain, Castile and león, Zamora,42.1935,-6.72603,11,2.0
1122,0,Refugio PIDIO,,0,1017.0,Spain, Cantabria, Cantabria,43.1299,-4.80694,25,
1123,1,Los Batanes,,0,826.0,Spain, Castile-la mancha, Albacete,38.937,-2.84752,0,1.0
1124,1,Campamento Cruz de Borgoña,,0,1412.0,Spain, Castile and león, Ávila,40.323,-5.17879,3,
1125,0,Refugio Bocalprado,10.0,1,1500.0,Spain, Castile and león, Soria,41.9461,-2.83994,4,2.0
1126,1,El Jabali Blanco,,0,778.0,Spain, Aragon, Huesca,42.4996,-0.120259,5,
1127,0,Refugio de Peña Citores,2.0,1,2075.0,Spain, Castile and león, Segovia,40.8368,-3.9906,11,
1128,1,Camping Valle de Hecho,,0,816.0,Spain, Aragon, Huesca,42.7322,-0.753149,31,
1129,1,Eurocamping,,0,6.0,Spain, Catalonia, Girona,41.847,3.09815,22,
1130,0,Cabane Cicerola,3.0,1,1383.0,France, Occitanie, Pyrénées-Orientales,42.523,2.4111,2,1.0
1131,0,Refugio TENEROSA,20.0,0,1310.0,Spain, Asturias, Asturias,43.2275,-4.79237,25,
1132,0,Refugio VALLIVANA,35.0,0,651.0,Spain, Valencian community, Castellón,40.5401,0.053908,26,
1133,0,Refugio VEGA DE ARIO,34.0,0,1630.0,Spain, Asturias, Asturias,43.2427,-4.92299,26,
1134,1,Camping Octogesa,,0,79.0,Spain, Aragon, Zaragoza,41.3783,0.305814,0,
1135,0,Refugio SERRADETS,57.0,0,2599.0,France, Occitanie, Hautes-Pyrénées,42.6959,-0.033476,28,
1136,0,Refugio CASA CANELO,22.0,0,1054.0,Spain, Catalonia, Lleida,42.4548,1.14956,17,
1137,1,Pinar San Jose,,0,15.0,Spain, Andalusia, Cádiz,36.2013,-6.03433,0,
1138,0,Refugio de Elorrieta,16.0,1,3187.0,Spain, Andalusia, Granada,37.0413,-3.3922,8,4.0
1139,0,Refugio SANTA ISABEL,2.0,1,1520.0,Spain, Aragon, Huesca,42.5365,0.252473,10,
1140,0,Refugio BASTIELLES,2.0,1,2000.0,Spain, Aragon, Huesca,42.6547,0.510032,30,
1141,1,CP Finca Poc a Poc,,0,320.0,Spain, Catalonia, Tarragona,40.7159,0.371547,4,
1142,0,Refugio de la Loma de Cáñar,4.0,1,2800.0,Spain, Andalusia, Granada,37.0052,-3.4241,8,2.0
1143,0,La Chimba,4.0,1,1200.0,Spain, Andalusia, Jaén,37.6532,-3.71689,0,2.0
1144,0,Refugio PRADOS LO-BUITRE,,0,1796.0,Spain, Andalusia, Granada,37.8524,-2.81888,18,
1145,0,Refugio BUJARUELO,,0,1335.0,Spain, Aragon, Huesca,42.6945,-0.106904,24,
1146,1,La Chopera,,0,335.0,Spain, Extremadura, Cáceres,40.0453,-6.05848,5,
1147,0,Refugio CUBILLOS,,1,1249.0,Spain, Castile and león, Soria,41.9051,-2.9079,6,
1148,0,Refugio ESTACION PALANCAR,25.0,0,971.0,Spain, Valencian community, Castellón,40.03,-0.721096,16,5.0
1149,0,Refugio de La Mina,6.0,1,1700.0,Spain, Castile and león, Ávila,40.2126,-5.55569,4,2.0
1150,0,Refugio MUSSARA,54.0,0,980.0,Spain, Catalonia, Tarragona,41.2524,1.02837,29,
1151,1,Camping Riópar,,0,978.0,Spain, Castile-la mancha, Albacete,38.4958,-2.43665,10,
1152,0,Refugio de Respomuso,90.0,0,2200.0,Spain, Aragon, Huesca,42.8188,-0.286256,33,
1153,0,Refugio de Linza,75.0,0,1330.0,Spain, Aragon, Huesca,42.8983,-0.801816,67,
1154,0,Refugio CUENTO EL,,1,1160.0,Spain, Castile and león, Soria,41.8483,-2.80198,3,
1155,1,Camping Playa de la Franca,,0,13.0,Spain, Asturias, Asturias,43.3903,-4.57852,7,
1156,0,Refugio MATA MONIGAR,,1,1127.0,Spain, Castile and león, Soria,41.8634,-3.05881,6,
1157,0,Refugio Claror,20.0,1,2280.0,Andorra, Escaldes-engordany, Escaldes-engordany,42.4701,1.56389,91,4.0
1158,0,Refugio COMUNA BUNYOLA,15.0,0,613.0,Spain, Balearic islands, Palma de Mallorca,39.7101,2.72771,6,
1159,0,Refugio XOXOTE,50.0,0,865.0,Spain, Basque country, Gipuzkoa,43.1994,-2.28535,93,
1160,0,La barraca del Forn de Calç,12.0,1,474.0,Spain, Catalonia, Girona,42.4498,2.94705,7,3.0
1161,0,Refugio de las Hoyas,8.0,1,1990.0,Spain, Andalusia, Almería,37.2127,-2.485,0,2.0
1162,0,Refugio CABANA PASTORES,26.0,0,1110.0,Spain, Asturias, Asturias,43.2688,-4.99835,25,
1163,0,Refugio PUYARUESO,,1,1820.0,Spain, Aragon, Huesca,42.6657,0.393644,26,
1164,0,Refugio A FOLEPA,,0,1200.0,Spain, Galicia, Ourense,42.2662,-6.89524,9,
1165,0,Casa del Pico,,1,727.0,Spain, Valencian community, Valencia,39.178,-1.1104,11,
1166,1,Camping Torremolinos,,0,47.0,Spain, Andalusia, Málaga,36.6283,-4.49631,13,
1167,1,Camping Vegamar,,0,31.0,Spain, Asturias, Asturias,43.5456,-6.9957,8,
1168,0,Refugio MATEU FUMAYA,15.0,1,1500.0,Spain, Catalonia, Barcelona,42.1769,1.80378,24,
1169,0,Refugio de Biadós,70.0,0,1760.0,Spain, Aragon, Huesca,42.6625,0.378279,26,
1170,0,Refugio COMES DE RUBIO,50.0,0,1980.0,Spain, Catalonia, Lleida,42.407,1.24204,30,5.0
1171,0,Refugio de las Llastrillas,4.0,1,1580.0,Spain, La rioja, La Rioja,42.1264,-2.78239,4,3.0
1172,1,Nerja Camping,,0,125.0,Spain, Andalusia, Málaga,36.7605,-3.83432,3,
1173,1,Camping Serranía,,0,1006.0,Spain, Castile-la mancha, Cuenca,40.413,-2.06503,7,
1174,0,Refugio Jaume Ferrer,8.0,1,1966.0,Spain, Catalonia, Girona,42.3992,2.32887,10,2.0
1175,0,Refugio COLL BAIX,6.0,0,133.0,Spain, Balearic islands, Palma de Mallorca,39.8597,3.18492,2,
1176,0,Plan De Están,6.0,1,1850.0,Spain, Aragon, Huesca,42.6806,0.64345,26,3.0
1177,0,Refugio VEGA DE URRIELLU,100.0,0,1955.0,Spain, Asturias, Asturias,43.2028,-4.82141,25,
1178,1,Santa Marta,,0,62.0,Spain, Galicia, A Coruña,43.3098,-8.24432,1,
1179,0,Refugio CABANA LA,,0,314.0,Spain, Cantabria, Cantabria,43.1566,-4.63637,20,
1180,0,Refugio de la Piedra del Sombrerillo,4.0,1,1923.0,Spain, Andalusia, Almería,37.2108,-2.60819,0,1.0
1181,0,Refugio Corral Blanc Panoles,36.0,0,1815.0,Spain, Catalonia, Girona,42.337,2.11081,16,7.0
1182,1,Las Almohallas,,1,916.0,Spain, Andalusia, Almería,37.7821,-2.07313,0,3.0
1183,0,Refugio COLLADO DEL CAMPO,5.0,1,1278.0,Spain, Aragon, Zaragoza,41.7042,-1.70266,3,
1184,0,Refugio Cabeza de la Braña,,0,1615.0,Spain, Castile and león, León,42.9105,-6.09576,9,
1185,1,Les Palmeres,,0,2.0,Spain, Valencian community, Valencia,39.2526,-0.266226,13,
1186,0,Refugio del Pla de les Pedres,6.0,1,2150.0,Andorra, Encamp, Encamp,42.5536,1.6789,86,5.0
1187,0,Refugio FONTE DA COVA,50.0,0,1778.0,Spain, Galicia, Ourense,42.3201,-6.73828,11,
1188,1,El Faro,,0,22.0,Spain, Andalusia, Cádiz,36.3033,-6.12651,0,
1189,0,Refugio BASTIDA QUATRETONDA,20.0,0,297.0,Spain, Valencian community, Valencia,38.9861,-0.376735,66,6.0
1190,1,Camping el Solsonès,,0,705.0,Spain, Catalonia, Lleida,42.0129,1.51586,1,
1191,1,Camping Bergondo,,0,7.0,Spain, Galicia, A Coruña,43.3418,-8.23876,1,
1192,1,Camping Los Linares,,0,470.0,Spain, Andalusia, Cádiz,36.7691,-5.46034,4,
1193,0,Refugio GALISANCHO,,0,821.0,Spain, Castile and león, Salamanca,40.7409,-5.55937,0,
1194,1,Camping Zafarraya,,0,892.0,Spain, Andalusia, Granada,36.9648,-4.13917,4,
1195,0,Refugio Rialb,10.0,1,1990.0,Andorra, Ordino, Ordino,42.6404,1.56129,87,5.0
1196,0,Refugio FAJA LINAS,,1,1720.0,Spain, Aragon, Huesca,42.6579,-0.178118,22,
1197,0,Refugio CASARES,8.0,1,590.0,Spain, Andalusia, Málaga,36.456,-5.2814,8,
1198,0,Cabane Pastorale del Estanyol,10.0,1,1350.0,France, Occitanie, Pyrénées-Orientales,42.518,2.52442,3,4.0
1199,0,Refugio ARRIURDIN,3.0,1,1187.0,Spain, Basque country, Gipuzkoa,42.9852,-2.36688,70,
1200,0,Refugio Saleras,6.0,1,1540.0,Spain, Aragon, Huesca,42.741,-0.58794,40,2.0
1201,0,Refugio PUENTENEGRO,,1,1311.0,Spain, Castile and león, Segovia,40.7549,-4.14102,18,
1202,0,Refugio El Campillo,11.0,1,1487.0,Spain, Andalusia, Jaén,38.2458,-2.65131,23,4.0
1203,0,Refugio Matutano,10.0,1,2200.0,France, Occitanie, Pyrénées-Orientales,42.4484,2.22166,5,4.0
1204,0,Refugio REBEZO,4.0,1,1690.0,Spain, Castile and león, León,43.001,-6.27981,13,
1205,0,Refugio de Coronas,20.0,1,1960.0,Spain, Aragon, Huesca,42.6103,0.62105,24,5.0
1206,0,Refugio de la Caldera,16.0,1,3050.0,Spain, Andalusia, Granada,37.0547,-3.32633,8,
1207,0,Refugi forestal Lobo Bajo,,1,903.0,Spain, Valencian community, Valencia,39.116,-1.2338,3,
1208,0,Refugio Vivac El Doctor,12.0,1,2000.0,Spain, Andalusia, Almería,37.1035,-2.9435,1,3.0
1209,1,Camping Sopelana,,0,53.0,Spain, Basque country, Biscay,43.3896,-2.98454,0,1.0
1210,0,Refugio ARROYO VERRUGA,12.0,0,1793.0,Spain, Andalusia, Almería,37.2249,-2.58802,0,
1211,0,Refugio OJIMAZ,,1,1481.0,Spain, Castile and león, Burgos,42.088,-3.04935,9,
1212,1,Camping Los Robles,,0,1038.0,Spain, Castile and león, Zamora,42.1172,-6.71419,11,
1213,0,Refugio la Serratilla,15.0,1,1000.0,Spain, Valencian community, Valencia,39.6626,-1.22338,22,3.0
1214,0,Refugio de Fetás,8.0,1,1850.0,Spain, Aragon, Huesca,42.7771,-0.64647,59,
1215,0,Refugio VALLERA,4.0,1,1599.0,Spain, Castile and león, León,43.0349,-6.07912,17,
1216,0,Refugio Cabaña del Cuadro o de la Pesca,10.0,1,1060.0,Spain, Castile and león, León,42.8867,-6.74606,6,4.0
1217,0,Refugio de La Venta,6.0,1,2200.0,Spain, Andalusia, Granada,37.1108,-3.15034,7,1.0
1218,0,Refugio de Estós,100.0,0,1890.0,Spain, Aragon, Huesca,42.6755,0.48537,28,
1219,1,PAINTBALL  SPORT,,0,386.0,Spain, Region of murcia, Murcia,37.801,-1.52012,10,
1220,0,Refugio SIARB,20.0,0,1308.0,Spain, Catalonia, Lleida,42.3704,1.18972,17,
1221,1,Puig Campanga,,0,291.0,Spain, Valencian community, Alicante,38.5706,-0.181789,50,7.0
1222,0,Refugio SABOCOS,6.0,1,1980.0,Spain, Aragon, Huesca,42.695,-0.25717,23,
1223,0,Boal de Ses Serveres,5.0,1,400.0,Spain, Balearic islands, Palma de Mallorca,39.6445,2.46856,4,1.0
1224,0,Refugio IGARATZA,6.0,1,1286.0,Spain, Basque country, Gipuzkoa,42.9839,-2.04231,70,
1225,0,Refugio TURRUNCUN,15.0,0,915.0,Spain, La rioja, La Rioja,42.1542,-2.11222,1,
1226,0,Refugio Natural de Siete Lagunas,6.0,1,3060.0,Spain, Andalusia, Granada,37.0478,-3.29494,8,1.0
1227,1,Costa Brava,,0,8.0,Spain, Catalonia, Girona,41.8456,3.09479,22,
1228,1,Camping Lagos de Somiedo,,0,1213.0,Spain, Asturias, Asturias,43.072,-6.20177,17,
1229,0,Refugio PRADO CONCEJO LASTRA,,0,740.0,Spain, Cantabria, Cantabria,43.1665,-4.41191,3,
1230,1,Camping Fraga Balada,,0,27.0,Spain, Galicia, A Coruña,42.6377,-9.03376,0,
1231,0,Refugio La Basseta,80.0,0,1720.0,Spain, Catalonia, Lleida,42.4177,1.28722,46,4.0
1232,0,Meson de Gillué,8.0,1,1000.0,Spain, Aragon, Huesca,42.4374,-0.16968,4,2.0
1233,1,Els Ateus,,0,545.0,Spain, Catalonia, Tarragona,40.8739,0.303572,1,
1234,1,Las Lomas. Camping y Bungalows.,,0,1088.0,Spain, Andalusia, Granada,37.1599,-3.45376,6,
1235,0,Refugio VEIGAS LAS,,0,1432.0,Spain, Castile and león, León,42.9338,-6.08725,9,
1236,1,As Cabazas,,0,16.0,Spain, Galicia, A Coruña,43.5394,-8.29431,1,
1237,0,Refugio del Buitre,7.0,1,1850.0,Spain, Andalusia, Granada,37.8558,-2.81857,19,2.0
1238,1,Sierra Maria,,0,1149.0,Spain, Andalusia, Almería,37.7091,-2.23595,0,
1239,0,Refugio Coll de Banyuls,12.0,1,358.0,Spain, Catalonia, Girona,42.4505,3.05378,6,5.0
1240,0,Refugio LLITEROLA,4.0,1,1980.0,Spain, Aragon, Huesca,42.6696,0.554406,29,
1241,0,Minas de Pozo Lupión,6.0,1,1920.0,Spain, Andalusia, Almería,36.8988,-2.88338,1,2.0
1242,0,Refugio Mare de Déu de Colobor,8.0,1,1035.0,Spain, Catalonia, Lleida,42.0327,0.788667,1,1.0
1243,0,Ermita de Santa Bàrbara,40.0,0,831.0,Spain, Catalonia, Girona,41.9263,2.61813,28,
1244,0,Refugio SELLENA CABANA,3.0,1,1859.0,Spain, Aragon, Huesca,42.6604,0.325474,23,
1245,0,Refugi El Cabuchuelo,,1,970.0,Spain, Valencian community, Valencia,39.9101,-1.16291,24,
1246,1,Can Banal-camping i allotjamentCa,,0,326.0,Spain, Catalonia, Girona,42.2436,2.58359,23,1.0
1247,0,Refugio MONZARRO,8.0,1,2000.0,Spain, Aragon, Huesca,42.6378,0.321251,20,
1248,0,Refugio de Santa Marina,8.0,1,1450.0,Spain, Castile and león, Palencia,42.9744,-4.60612,8,3.0
1249,0,Refugi de Planelles,20.0,1,1390.0,Spain, Catalonia, Girona,42.2701,2.08546,21,
1250,0,Refugio Montanejos,25.0,0,460.0,Spain, Valencian community, Castellón,40.0717,-0.52655,28,4.0
1251,1,Complejo La Mata,,0,378.0,Spain, Extremadura, Cáceres,40.1529,-5.36004,2,
1252,0,Refugio MUNECA,4.0,1,1243.0,Spain, Castile and león, Burgos,42.1078,-3.12659,11,
1253,0,Refugio del Búnker,4.0,1,1800.0,Spain, Castile and león, Soria,42.0087,-2.90499,4,1.0
1254,1,Camping Fuengirola,,0,10.0,Spain, Andalusia, Málaga,36.5212,-4.63091,11,
1255,1,Camping Pinos Genil,,0,772.0,Spain, Andalusia, Granada,37.1718,-3.50856,1,
1256,1,Camping Picos de Europa,,0,236.0,Spain, Asturias, Asturias,43.3345,-4.94602,22,
1257,1,Camping La Quinta Bella (Flordevida),,0,194.0,Spain, Region of murcia, Murcia,37.4538,-1.64554,2,
1258,0,Refugios de La Tagnarede,12.0,1,1052.0,France, Occitanie, Pyrénées-Orientales,42.4759,2.95697,7,3.0
1259,0,Refugio de Bachimaña Alto,8.0,1,2220.0,Spain, Aragon, Huesca,42.789,-0.22116,27,2.0
1260,0,Refugio CORONAS,,1,2240.0,Spain, Aragon, Huesca,42.6182,0.629637,25,
1261,0,Refugio BARBOTE,16.0,0,2438.0,Spain, Catalonia, Lleida,42.6482,1.36418,84,
1262,1,camping Pineta,,0,1280.0,Spain, Aragon, Huesca,42.6761,0.0860097,30,
1263,1,Regio,,0,795.0,Spain, Castile and león, Salamanca,40.9478,-5.61436,2,
1264,1,El Cortijo,,0,764.0,Spain, Andalusia, Málaga,36.7826,-5.11712,6,
1265,0,Orri de la Casteille,5.0,1,1987.0,France, Occitanie, Pyrénées-Orientales,42.5349,2.44005,2,1.0
1266,0,Refugio de Armeña,25.0,1,1835.0,Spain, Aragon, Huesca,42.5241,0.34705,9,5.0
1267,1,Blanes,,0,8.0,Spain, Catalonia, Girona,41.6592,2.77977,15,
1268,0,Refugio de la Barranca,5.0,1,1650.0,Spain, Castile and león, Ávila,40.2901,-5.29978,3,2.0
1269,0,Refugio FENALES LOS,18.0,1,1409.0,Spain, Aragon, Huesca,42.3037,-0.19889,11,
1270,1,Camping Serra,,0,204.0,Spain, Valencian community, Valencia,39.6497,-0.483885,26,
1271,0,Refugi Agua Tomás,,1,615.0,Spain, Valencian community, Valencia,39.9081,-1.1884,24,
1272,0,Refugi Sant Jordi,44.0,0,1565.0,Spain, Catalonia, Barcelona,42.2941,1.805,23,6.0
1273,1,Zona de acampada Virgen del Rosario,25.0,1,258.0,Spain, Valencian community, Alicante,38.2489,-0.903525,34,
1274,0,Refugio RIANO,32.0,0,1136.0,Spain, Castile and león, León,42.9719,-4.99437,28,
1275,1,Despeñaperros,,0,774.0,Spain, Andalusia, Jaén,38.3434,-3.53544,0,
1276,0,Refugio Peña El Collao,8.0,1,1036.0,Spain, La rioja, La Rioja,42.3069,-2.86841,1,2.0
1277,0,Refugio MONTE BRAZO,12.0,0,393.0,Spain, Cantabria, Cantabria,43.2248,-4.04574,4,
1278,0,Refugio RIPERA 2,2.0,1,1443.0,Spain, Aragon, Huesca,42.7196,-0.255328,25,
1279,0,La Cova,5.0,1,2000.0,Spain, Catalonia, Lleida,42.6029,0.796654,23,2.0
1280,1,Camping San Juan,,0,227.0,Spain, Andalusia, Málaga,36.5664,-5.24512,10,
1281,0,Refugio CAN BOI,32.0,0,163.0,Spain, Balearic islands, Palma de Mallorca,39.7473,2.6491,6,6.0
1282,1,Paloma,,0,8.0,Spain, Andalusia, Cádiz,36.0762,-5.69336,0,
1283,0,Refugio HERNANIKOA CAZADORES,,0,1078.0,Spain, Aragon, Zaragoza,41.7739,-1.76162,3,
1284,0,Refugi Ciríac Bonet,18.0,0,729.0,Spain, Catalonia, Tarragona,41.2583,0.93253,25,6.0
1285,1,Càmping Cugulera,,0,391.0,Spain, Catalonia, Girona,42.1888,2.58549,23,
1286,1,EL 301,,0,262.0,Spain, Extremadura, Cáceres,39.0965,-6.01357,4,
1287,1,Bella Terra,,0,5.0,Spain, Catalonia, Girona,41.6584,2.77843,15,
1288,0,Refugio FOIETES,52.0,0,850.0,Spain, Valencian community, Alicante,38.7352,-0.465246,77,
1289,0,Refugio casa forestal La Zarza,5.0,1,1295.0,Spain, Andalusia, Jaén,38.0018,-2.91582,21,4.0
1290,0,Refugio del Cubilar,4.0,1,1800.0,Spain, Aragon, Huesca,42.7585,-0.59107,42,2.0
1291,0,Refugio CLUSA LA,25.0,0,1358.0,Spain, Catalonia, Barcelona,42.1871,1.93543,31,
1292,0,Santa Lena,20.0,1,541.0,Spain, Catalonia, Girona,42.0262,2.64066,31,
1293,1,Camping PuenteNuevo,,0,426.0,Spain, Andalusia, Córdoba,38.0811,-4.9275,0,
1294,1,Cachadelos,,0,22.0,Spain, Galicia, Pontevedra,42.4178,-8.86926,2,
1295,1,Costasol cruseros,,0,-1.0,Spain, Andalusia, Málaga,36.597,-4.51069,9,
1296,0,Refugio CHIPETA ALTO,4.0,1,2000.0,Spain, Aragon, Huesca,42.8585,-0.747322,73,
1297,0,Refugio dets Forquets,7.0,1,1625.0,France, Occitanie, Pyrénées-Orientales,42.4355,2.39644,4,1.0
1298,0,Refugio S BLANCA,4.0,1,1216.0,Spain, Castile and león, León,42.9465,-5.97618,11,
1299,0,Refugio PIORNO EL,,0,1448.0,Spain, Andalusia, Almería,36.9109,-2.69614,1,
1300,0,Refugio LINZA,96.0,0,1344.0,Spain, Aragon, Huesca,42.8983,-0.799593,68,
1301,0,Orri de Moura,3.0,1,1827.0,France, Occitanie, Pyrénées-Orientales,42.5157,2.41551,2,1.0
1302,0,Refugio ENTZIA,20.0,0,962.0,Spain, Basque country, Álava,42.8114,-2.2754,28,
1303,0,Refugio FUENFRIA,,0,1633.0,Spain, Castile and león, León,42.9882,-6.14899,13,
1304,0,Refugio ESCUSANETA LA,,1,1900.0,Spain, Aragon, Huesca,42.6965,-0.096908,25,
1305,0,Refugi Ulldeter (lliure),6.0,1,2236.0,Spain, Catalonia, Girona,42.4198,2.25773,8,2.0
1306,1,Trevelez,,0,1532.0,Spain, Andalusia, Granada,36.9917,-3.27071,8,
1307,1,Apartamentos Era 124,,0,824.0,Spain, Castile-la mancha, Cuenca,39.8656,-2.57098,0,
1308,1,OTRO,,0,201.0,Spain, Galicia, A Coruña,42.8806,-8.56308,5,
1309,0,Refugi Andariel,,1,620.0,Spain, Valencian community, Valencia,39.7983,-1.03694,31,
1310,0,Església de Sant Martí Sapresa,40.0,0,246.0,Spain, Catalonia, Girona,41.9259,2.65068,26,
1311,0,Refugio ESTAON,18.0,0,1256.0,Spain, Catalonia, Lleida,42.588,1.21041,31,
1312,1,La Pirámide,,0,174.0,Spain, Valencian community, Valencia,39.4199,-0.600352,23,
1313,1,Relax Ge,,0,39.0,Spain, Catalonia, Girona,41.8923,3.14436,20,
1314,0,Refugio REGUERO LLANO,45.0,0,1907.0,Spain, Castile and león, Ávila,40.2762,-5.23728,3,
1315,1,Camping Granada,,0,736.0,Spain, Andalusia, Granada,37.2414,-3.63121,0,
1316,0,Refugio PRADOPUERTO,8.0,1,1919.0,Spain, Castile and león, Ávila,40.2641,-5.23403,4,
1317,0,Punto de Acogida del Camino del Cid de Quintanarraya,6.0,1,935.0,Spain, Castile and león, Burgos,41.7867,-3.33838,5,6.0
1318,1,EuroCamping de Oliva,,0,8.0,Spain, Valencian community, Valencia,38.9063,-0.066831,63,
1319,0,Refugio PARDAS,,1,1920.0,Spain, Aragon, Huesca,42.608,0.374643,18,
1320,1,camping Los Galayos,,0,916.0,Spain, Castile and león, Ávila,40.2237,-5.15263,4,
1321,0,Refugio ALBAREA,6.0,1,926.0,Spain, Castile and león, Ávila,40.2155,-5.24784,4,
1322,0,Refugio PASTORES,2.0,0,1749.0,Spain, Aragon, Huesca,42.6429,0.007188,23,
1323,1,Las Nogueras de Nerpio,,0,1144.0,Spain, Castile-la mancha, Albacete,38.1409,-2.30372,4,
1324,0,VIVAC DE TIRAPITS,3.0,1,2706.0,Spain, Catalonia, Girona,42.4187,2.20908,11,
1325,1,Acampamento O Caurel,,0,589.0,Spain, Galicia, Lugo,42.6422,-7.13558,1,
1326,0,Refugio VANTONY VICTORY,25.0,0,1947.0,Spain, Castile and león, Ávila,40.2598,-5.17346,4,
1327,0,Refugi Prat d’Aguiló “Cèsar August Torras”,32.0,0,2020.0,Spain, Catalonia, Lleida,42.2972,1.7141,27,6.0
1328,0,Refugio Mas de Falcó,30.0,0,1038.0,Spain, Valencian community, Castellón,40.5279,-0.213476,37,4.0
1329,0,Refugio de Piedra Negra,12.0,1,1890.0,Spain, Andalusia, Almería,37.0997,-2.88876,1,3.0
1330,0,Refugio de la Porteille de Rotja,10.0,1,2385.0,France, Occitanie, Pyrénées-Orientales,42.4288,2.33717,4,2.0
1331,0,Refugio CASTELL DLARO,12.0,0,699.0,Spain, Balearic islands, Palma de Mallorca,39.7324,2.79354,5,
1332,0,Refugio Vuelta de Iserias,8.0,1,1697.0,Spain, Aragon, Huesca,42.7567,-0.46741,41,2.0
1333,0,Refugio LARRI DE,,0,1576.0,Spain, Aragon, Huesca,42.6864,0.084718,30,
1334,1,Nuevo Camping la Herradura,,0,8.0,Spain, Andalusia, Granada,36.7397,-3.75337,1,
1335,0,Refugio QUINTANALUENGOS,,0,956.0,Spain, Castile and león, Palencia,42.8455,-4.39675,2,1.0
1336,1,La Rana Verde,,0,9.0,Spain, Andalusia, Cádiz,36.3952,-6.15707,0,
1337,0,Refugio NAVACASERA II,,1,1516.0,Spain, Castile and león, Ávila,40.2552,-5.5672,4,
1338,0,VIVAC MAJADA TREVINCA,,0,1693.0,Spain, Castile and león, Zamora,42.2292,-6.78168,11,
1339,0,refugio Cortal dels Cortils,7.0,1,2228.0,Spain, Catalonia, Barcelona,42.2821,1.69149,27,2.0
1340,0,Refugi Engorgs “Joaquim Folch i Girona”,18.0,1,2380.0,Spain, Catalonia, Girona,42.4812,1.7456,79,1.0
1341,0,Refugio Zabala,5.0,1,2079.0,Spain, Community of madrid, Madrid,40.8372,-3.95832,10,2.0
1342,1,Camping Perbes,,0,38.0,Spain, Galicia, A Coruña,43.3691,-8.21555,1,
1343,0,Refugio de La Salamanca,8.0,1,1780.0,Spain, Castile and león, Ávila,40.6805,-4.17225,18,1.0
1344,0,Refugio PLETA DEL PRAT,50.0,0,1750.0,Spain, Catalonia, Lleida,42.6779,1.21874,27,
1345,1,Camping El Carbayal,,0,994.0,Spain, Castile and león, León,42.4445,-6.23713,1,
1346,0,Refugio JUSTEL,,1,1079.0,Spain, Castile and león, Zamora,42.178,-6.31221,1,
1347,0,Refugio de las Nieves,10.0,1,1485.0,Spain, Extremadura, Cáceres,40.1766,-5.63587,6,2.0
1348,1,Camping L'Espelt,,0,809.0,Spain, Catalonia, Barcelona,42.2422,1.92253,30,
1349,0,Refugio ANGLIOS,4.0,0,2240.0,Spain, Aragon, Huesca,42.5902,0.709389,22,
1350,0,Refugio de la Majada del Espino,5.0,1,1450.0,Spain, Castile and león, Ávila,40.3727,-4.53485,3,
1351,0,Refugio de la Barca,4.0,1,2090.0,Spain, Castile and león, Ávila,40.2551,-5.4437,3,1.0
1352,0,refugio de Acher,8.0,1,1700.0,Spain, Aragon, Huesca,42.8165,-0.687856,72,2.0
1353,1,Camping Punta Batuda,,0,20.0,Spain, Galicia, A Coruña,42.7714,-8.9386,0,
1354,0,Refugio Peña Gorda,8.0,1,1100.0,Spain, Castile and león, Soria,41.8911,-2.94535,6,2.0
1355,1,Camping Urrobi,,0,863.0,Spain, Navarre, Navarre,42.973,-1.35236,10,
1356,1,Area de acampada  Los Villares,,0,581.0,Spain, Andalusia, Córdoba,37.9621,-4.81068,0,
1357,1,Camping Las Aguas,,0,938.0,Spain, Aragon, Teruel,40.8161,-0.643223,1,
1358,1,Lagos de Somiedo,,0,1257.0,Spain, Asturias, Asturias,43.0668,-6.18821,17,
1359,0,Refugio de Saburcal,4.0,1,1430.0,Spain, Aragon, Huesca,42.8593,-0.70479,74,1.0
1360,0,Refugio DOLAR EL,6.0,1,1426.0,Spain, Castile and león, Burgos,42.0457,-2.9449,8,
1361,0,Refugio Braña de las Joces.,5.0,1,650.0,Spain, Cantabria, Cantabria,43.2176,-4.23785,3,3.0
1362,1,Camping Abadesses,,0,844.0,Spain, Catalonia, Girona,42.2494,2.33355,17,
1363,1,O Terrón,,0,14.0,Spain, Galicia, Pontevedra,42.5544,-8.83396,1,
1364,0,VIVAC MERENDERO ICONA,8.0,1,1111.0,Spain, Andalusia, Cádiz,36.7546,-5.39428,6,
1365,1,Camping Tamariu,,0,27.0,Spain, Catalonia, Girona,41.9204,3.20275,20,
1366,0,Abrigo Michaud,3.0,1,2700.0,Spain, Aragon, Huesca,42.8377,-0.29692,38,
1367,0,Refugio GRESOLET,33.0,0,1230.0,Spain, Catalonia, Barcelona,42.2581,1.72417,25,
1368,0,Refugio RAGUA LA,32.0,0,2040.0,Spain, Andalusia, Granada,37.1143,-3.02947,4,
1369,0,Cortijo Patena,6.0,1,1850.0,Spain, Andalusia, Almería,36.8997,-2.86937,1,2.0
1370,0,Refugio de Balatg,20.0,1,1680.0,France, Occitanie, Pyrénées-Orientales,42.5491,2.45678,2,4.0
1371,1,Camping Valleniza Playa,,0,1.0,Spain, Andalusia, Málaga,36.7198,-4.16472,3,
1372,1,Cerdanya,,0,1018.0,Spain, Catalonia, Lleida,42.3714,1.73584,70,
1373,0,Refugio GALL FER,36.0,1,1686.0,Spain, Catalonia, Lleida,42.521,1.30692,81,
1374,0,Refugio de Terranyes (Mas del Torrero),20.0,1,1150.0,Spain, Catalonia, Tarragona,40.8359,0.292434,1,3.0
1375,0,Refugio PAUL,,1,2050.0,Spain, Aragon, Huesca,42.6804,0.454273,26,
1376,1,l' Amfora,,0,3.0,Spain, Catalonia, Girona,42.1819,3.104,7,
1377,0,Refugio BOROBIA,,0,1163.0,Spain, Castile and león, Soria,41.6871,-1.89023,3,
1378,0,Casilla del Barrancazo,4.0,1,1250.0,Spain, Castile-la mancha, Albacete,38.5906,-2.4275,4,2.0
1379,1,Vinaros,,0,14.0,Spain, Valencian community, Castellón,40.4932,0.484266,7,
1380,0,Refugio Forestal de les Cases,10.0,1,1883.0,Spain, Catalonia, Girona,42.4702,1.84302,46,
1381,1,El Molino,,0,616.0,Spain, Cantabria, Cantabria,43.0897,-4.64278,20,
1382,0,Refugio ANCARES-DEGRADA,,0,1324.0,Spain, Galicia, Lugo,42.8199,-6.92179,5,
1383,0,Refugio PINAR,,0,1016.0,Spain, Aragon, Zaragoza,41.2831,-1.43921,6,
1384,1,Laciana Natura,,0,974.0,Spain, Castile and león, León,42.9398,-6.33898,10,
1385,1,Camping Kiko,,0,6.0,Spain, Valencian community, Valencia,38.9329,-0.0974159,60,
1386,0,Refugio de Cap de Llauset,32.0,0,2425.0,Spain, Aragon, Huesca,42.5953,0.684328,22,
1387,0,Chozo de Carrió,4.0,1,1520.0,Spain, Castile and león, León,42.9501,-5.81286,9,1.0
1388,0,Sant Miquel de Castelló o de Falgàs,20.0,0,934.0,Spain, Catalonia, Girona,42.1021,2.43121,23,
1389,1,Ria de Arosa 2 Rural,,0,104.0,Spain, Galicia, A Coruña,42.6213,-8.98429,1,
1390,1,San Javier,,0,29.0,Spain, Region of murcia, Murcia,37.8071,-0.845617,3,1.0
1391,1,CAMPING DUGARREF,,0,223.0,Spain, Valencian community, Valencia,39.6697,-0.585425,26,
1392,0,Refugio de Cóms de Jan,10.0,1,2215.0,Andorra, Canillo, Canillo,42.6185,1.63883,85,5.0
1393,0,Refugio PLA DE LA FONT,23.0,0,2015.0,Spain, Catalonia, Lleida,42.5976,1.07274,18,
1394,1,Ciudad de Zamora,,0,652.0,Spain, Castile and león, Zamora,41.4641,-5.7215,0,
1395,0,Refugio de les Saleres de Caderget,4.0,1,1700.0,Spain, Catalonia, Girona,42.39,2.35669,8,2.0
1396,0,Refugio Faro de Budiño,22.0,1,401.0,Spain, Galicia, Pontevedra,42.1288,-8.58564,6,2.0
1397,0,Refugio PIEDRA DE LA CABEZA,3.0,1,1398.0,Spain, Castile-la mancha, Albacete,38.5713,-2.3739,5,
1398,1,El Mirador de Cabaneros,,0,636.0,Spain, Castile-la mancha, Ciudad Real,39.3232,-4.65011,0,
1399,0,Bordas Arriurdin,5.0,1,1100.0,Spain, Basque country, Gipuzkoa,42.9841,-2.35939,70,2.0
1400,1,Camping La Sierrecilla,,0,463.0,Spain, Andalusia, Málaga,37.1082,-4.69516,5,
1401,0,Refugio CASCADA LA,12.0,0,1850.0,Spain, Castile and león, Burgos,42.0509,-3.05158,8,
1402,1,"Camping ""Las Cabañas""",,0,972.0,Spain, Aragon, Teruel,40.8318,-0.881222,1,
1403,1,Camping La Serradora,,0,1147.0,Spain, Castile-la mancha, Cuenca,40.5934,-1.92809,3,1.0
1404,0,Refugio ESTANY FORCAT,2.0,1,2629.0,Andorra, La massana, La massana,42.5985,1.44848,90,
1405,1,Campamento La Isleta,,0,1383.0,Spain, Castile and león, Ávila,40.3376,-5.17826,3,
1406,0,Refugio PESCADORES,,1,1911.0,Spain, Castile and león, Burgos,42.0453,-3.06212,8,
1407,0,Refugio ACERAL DEL,6.0,0,1810.0,Spain, Andalusia, Granada,37.1051,-3.33001,8,
1408,1,Hípica A quatre potes,,0,1003.0,Spain, Catalonia, Lleida,42.3709,1.74135,69,
1409,0,Refugi Estanys de la Pera,35.0,0,2357.0,Spain, Catalonia, Lleida,42.4566,1.5988,93,6.0
1410,0,Refugio de Ocijo o Ocejo,10.0,1,1855.0,Spain, La rioja, La Rioja,42.2167,-2.91012,8,4.0
1411,0,VIVAC DE VARA,,0,1299.0,Spain, Galicia, Lugo,42.7999,-6.88298,4,
1412,1,Camping Internacional de Calonge,,0,37.0,Spain, Catalonia, Girona,41.8328,3.08451,22,
1413,0,Refugio RISQUIEZO EL,,1,1092.0,Spain, Castile and león, Soria,41.7995,-3.1967,4,
1414,0,Refugio CASETA CHINIPRES,6.0,1,1724.0,Spain, Aragon, Huesca,42.7763,-0.497576,51,
1415,1,Camping L'Aventura,,0,9.0,Spain, Valencian community, Valencia,38.9735,-0.150977,49,
1416,0,Refugio ERA HONERIA,24.0,0,1015.0,Spain, Catalonia, Lleida,42.8184,0.806669,21,
1417,0,Refugio de Miramundos,10.0,1,2077.0,Spain, Andalusia, Jaén,37.731,-3.44287,0,2.0
1418,0,Els Òbits,15.0,1,1000.0,Spain, Catalonia, Barcelona,41.6558,2.01305,59,2.0
1419,0,Refugio ZURDO,,1,1173.0,Spain, Castile and león, Soria,41.9059,-2.98573,6,
1420,0,Refugio BEUNDA,6.0,0,823.0,Spain, Basque country, Gipuzkoa,42.9304,-2.2725,63,
1421,0,Refugio PUICERGOS,26.0,0,816.0,Spain, Catalonia, Girona,42.1437,2.05324,30,
1422,0,Refugio ESTANY LLONG,47.0,0,1987.0,Spain, Catalonia, Lleida,42.5726,0.94241,20,
1423,1,Camping Caballo de Mar,,0,5.0,Spain, Catalonia, Barcelona,41.6182,2.67656,14,
1424,0,Refugio LISIER,2.0,1,1760.0,Spain, Aragon, Huesca,42.6526,0.339786,22,
1425,1,Camping La Enfermería,,0,557.0,Spain, Community of madrid, Madrid,40.3645,-4.32517,2,
1426,0,Refugio MASADA DE LA NAVA,,0,1423.0,Spain, Aragon, Teruel,40.3434,-1.39008,10,
1427,0,Refugio Mallata de la Fon Blanca - Añisclo (Ordesa),5.0,1,1790.0,Spain, Aragon, Huesca,42.6413,0.059229,26,1.0
1428,0,Refugio PUNTAL DEL,,1,2235.0,Spain, Andalusia, Granada,36.9929,-3.37358,8,
1429,0,Refugio BELLMUNT,20.0,1,1219.0,Spain, Catalonia, Barcelona,42.1018,2.29459,25,
1430,0,Refugio CABANA,10.0,0,1089.0,Spain, Galicia, Ourense,41.8197,-8.15388,0,
1431,0,Refugio TOBED,,1,1026.0,Spain, Aragon, Zaragoza,41.3329,-1.42193,5,
1432,0,Casa forestal la Tenalla,,1,612.0,Spain, Valencian community, Castellón,40.7093,0.204731,4,
1433,0,Refugio BASA LA,,0,1869.0,Spain, Aragon, Huesca,42.6629,0.397665,26,
1434,1,Campnatur,,0,,Spain, Balearic islands, Palma de Mallorca,39.5353,3.18993,0,1.0
1435,0,Refugio FUENTEGUIJOS,,1,1353.0,Spain, Castile and león, Segovia,40.7615,-4.13142,18,
1436,1,Camping & Bungalows Bellavista,,0,14.0,Spain, Region of murcia, Murcia,37.3924,-1.60961,0,
1437,0,Refugio Acebal,15.0,1,1250.0,Spain, Aragon, Zaragoza,41.3702,-1.49147,5,1.0
1438,0,Refugio Arago,4.0,1,2136.0,France, Occitanie, Pyrénées-Orientales,42.5039,2.44513,2,2.0
1439,0,Refugio POSTERO ALTO,64.0,0,1856.0,Spain, Andalusia, Granada,37.1392,-3.20082,6,
1440,0,Montaña de Riopedro,10.0,1,1635.0,Spain, Castile and león, Zamora,42.2149,-6.7569,12,3.0
1441,0,Refugio de los Prados del Rey,10.0,1,2025.0,Spain, Andalusia, Granada,37.3771,-2.85602,0,4.0
1442,0,Cabaña del Arroyo de Valverde,4.0,1,1485.0,Spain, Castile and león, León,43.0437,-5.20998,30,2.0
1443,1,Camping Playa America,,0,25.0,Spain, Galicia, Pontevedra,42.1382,-8.80923,4,
1444,0,Refugi Josep Maria Blanc (lliure),10.0,1,2350.0,Spain, Catalonia, Lleida,42.5455,1.04439,22,
1445,0,Refugio PORTILLO TORAL,,0,835.0,Spain, Cantabria, Cantabria,43.249,-4.16274,4,
1446,0,Refugio MESAS LAS,3.0,0,1343.0,Spain, Castile-la mancha, Albacete,38.5706,-2.31182,4,
1447,0,Refugio COMA OBAGA,15.0,1,1768.0,Andorra, Ordino, Ordino,42.5722,1.54823,86,
1448,0,Refugio de Peñón Colorao,15.0,1,2840.0,Spain, Andalusia, Granada,37.0307,-3.41378,8,1.0
1449,1,Arena Blanca,,0,31.0,Spain, Valencian community, Alicante,38.5514,-0.096389,42,
1450,0,Refugio EL AGUILA,148.0,0,1550.0,Spain, Aragon, Huesca,42.7877,-0.52965,70,
1451,0,Refugio SAN ADRIAN,,1,1098.0,Spain, Navarre, Navarre,42.8685,-2.0507,38,
1452,0,Refugio ZARBA CORTIJO DE,30.0,0,1215.0,Spain, Andalusia, Almería,36.917,-2.63492,0,
1453,0,Refugio BREZO EL,10.0,0,1392.0,Spain, Extremadura, Cáceres,40.164,-5.5942,5,
1454,0,Refugio ARDONES,10.0,1,2010.0,Spain, Aragon, Huesca,42.5901,0.577211,23,
1455,0,Refugio ANGEL SOPENA ARRABA,32.0,0,1078.0,Spain, Basque country, Biscay,43.054,-2.79418,15,
1456,1,Arco Iris,,0,625.0,Spain, Community of madrid, Madrid,40.3811,-3.9075,16,
1457,1,Os Invernadeiros,,0,448.0,Spain, Galicia, Ourense,42.1846,-7.81783,2,
1458,1,Camping-Alberg Tivissa,,0,320.0,Spain, Catalonia, Tarragona,41.0416,0.738278,9,
1459,1,Meson de Ligüerre,,0,450.0,Spain, Aragon, Huesca,42.28,0.196643,8,
1460,1,Campamento de Pereroles,108.0,0,1049.0,Spain, Valencian community, Castellón,40.6949,-0.06339,21,
1461,0,Refugio pescadores nº6,10.0,1,60.0,Spain, Cantabria, Cantabria,43.2798,-3.44408,13,2.0
1462,1,Finca La Campana El Chorro,,0,270.0,Spain, Andalusia, Málaga,36.9054,-4.74861,10,
1463,1,Cañón do Sil,,0,625.0,Spain, Galicia, Ourense,42.3896,-7.58905,4,
1464,0,Santa Maria d'Escales,15.0,1,377.0,Spain, Catalonia, Girona,42.2884,2.56529,21,
1465,1,Mont-Roig del Camp,,0,13.0,Spain, Catalonia, Tarragona,41.0379,0.974755,23,1.0
1466,0,Refugio BAQUERIZAL,6.0,1,1900.0,Spain, Aragon, Huesca,42.6093,0.45489,22,
1467,0,Refugio SINCORGUELS,,1,2190.0,Spain, Aragon, Huesca,42.6185,0.464424,25,
1468,0,Refugio de Trigoniero,4.0,1,2000.0,Spain, Aragon, Huesca,42.7037,0.245135,27,2.0
1469,1,Camping Balerma  Mar Azul,,0,5.0,Spain, Andalusia, Almería,36.7224,-2.87772,0,
1470,0,Refugio dels Cortals,8.0,1,1460.0,Spain, Catalonia, Girona,42.3343,1.85177,22,2.0
1471,0,Refugio Collada Pico las Rozas,4.0,1,1612.0,Spain, Castile and león, León,42.9578,-5.89869,8,3.0
